id,name,img,grade,lat,lng,phoneNumber,address
0,유코치의 바디스토리PT,https://search.pstatic.net/common/?autoRotate=true&type=w560_sharpen&src=https%3A%2F%2Fldb-phinf.pstatic.net%2F20171201_293%2F1512075478529TTu1k_JPEG%2F_MG_2485.jpg,4.43,37.57256096115111,127.081215553915,494-1031,"서울특별시 중랑구 면목로 220, 6층 (면목동)"
1,럭키 헬스,https://search.pstatic.net/common/?autoRotate=true&type=w560_sharpen&src=https%3A%2F%2Fldb-phinf.pstatic.net%2F20220714_241%2F1657782173608fAAha_GIF%2FIMG_ccmwyw.g,4.36,37.59841777964195,127.07403008302012,432-5111,"서울특별시 중랑구 중랑역로 51, 5층 (중화동)"
2,이코리아스포츠,https://search.pstatic.net/common/?autoRotate=true&quality=95&type=w750&src=https%3A%2F%2Fldb-phinf.pstatic.net%2F20200520_156%2F158996268018238KNu_JPEG%2FXKKxS0GPAKQf1plmhNXNKu7A.jpg,null,37.59998174064711,127.09989095715498,435-1113,"서울특별시 중랑구 망우로 454, 3층 (망우동)"
3,세방헬스클럽,null,4.24,37.57908806103654,127.08240073342031,435-5346,"서울특별시 중랑구 면목로37길 17, 세방사우나 4층 (면목동)"
4,비바 휘트니스,https://search.pstatic.net/common/?autoRotate=true&type=w560_sharpen&src=https%3A%2F%2Fldb-phinf.pstatic.net%2F20150831_132%2F14410088967947AEeE_JPEG%2F11630119_0.jpg,4.55,37.59493916940473,127.09733810588536,435-8293-4,"서울특별시 중랑구 용마산로 494, 4층 (망우동)"
5,피트니스 에스 핏,https://search.pstatic.net/common/?autoRotate=true&type=w560_sharpen&src=https%3A%2F%2Fldb-phinf.pstatic.net%2F20220707_28%2F1657200281120qgcoQ_JPEG%2F7%25BF%25F9_%25BF%25A9%25B8%25A7%25C0%25CC%25BA%25A5%25C6%25AE_%25283%2529.jpg,4.98,37.605836500404784,127.09320329265014,nan,"서울특별시 중랑구 신내로14길 13, 5층 (신내동)"
6,바디캠프,https://search.pstatic.net/common/?autoRotate=true&type=w560_sharpen&src=https%3A%2F%2Fldb-phinf.pstatic.net%2F20150901_181%2F1441054144940Xvqai_JPEG%2F36259419_0.jpeg,null,37.60642445823154,127.07534385661602,nan,"서울특별시 중랑구 동일로 851, 3층 (묵동)"
7,카인드짐 휘트니스&스쿼시,https://search.pstatic.net/common/?autoRotate=true&type=w560_sharpen&src=https%3A%2F%2Fldb-phinf.pstatic.net%2F20220502_124%2F1651470695136miUUp_JPEG%2FKakaoTalk_20220501_234907758_13.jpg,4.78,37.59808566401707,127.09123744923284,433-2505,"서울특별시 중랑구 용마산로115길 108, 이안빌딩 지하1층 (망우동)"
8,GOTO 면목,https://search.pstatic.net/common/?autoRotate=true&type=w560_sharpen&src=https%3A%2F%2Fldb-phinf.pstatic.net%2F20220228_149%2F16460435278612ila7_JPEG%2FKakaoTalk_20220228_191316197.jpg,4.12,37.57954755711984,127.0834063501954,433-9766,"서울특별시 중랑구 면목로39길 11, 카멜리아쇼핑센타 2층 (면목동)"
9,휘트니스 놀이터,https://search.pstatic.net/common/?autoRotate=true&type=w560_sharpen&src=https%3A%2F%2Fldb-phinf.pstatic.net%2F20161122_105%2F1479803874793W0qKe_JPEG%2F177072576774280_4.jpeg,null,37.61485600439793,127.07501679916344,02-976-7788,"서울특별시 중랑구 숙선옹주로 6-9, 101동 지하2층 (묵동, 묵동자이아파트1단지)"
10,커브스 신내클럽,https://search.pstatic.net/common/?autoRotate=true&type=w560_sharpen&src=https%3A%2F%2Fldb-phinf.pstatic.net%2F20150831_225%2F14409925363333DXzN_JPEG%2F137155595668149_0.jpeg,null,37.60559837714951,127.0922256274414,nan,"서울특별시 중랑구 신내로 71, 5층 (신내동)"
11,스포웰짐,https://search.pstatic.net/common/?autoRotate=true&type=w560_sharpen&src=https%3A%2F%2Fldb-phinf.pstatic.net%2F20151125_89%2F1448431462175KsGoK_JPEG%2F167075553442006_0.jpeg,4.3,37.60642551709436,127.091839163833,nan,"서울특별시 중랑구 봉화산로 194, 신아타운 10층 (신내동)"
12,투바디짐,https://search.pstatic.net/common/?autoRotate=true&type=w560_sharpen&src=https%3A%2F%2Fldb-phinf.pstatic.net%2F20150831_185%2F1441023288950yIt5c_JPEG%2FSUBMIT_1372913627892_32383035.jpg,null,37.59179784267104,127.07846786914376,495-2020,"서울특별시 중랑구 봉우재로 73, 2,3층 201,202,302호 (상봉동)"
13,올리브짐,null,4.5,37.58988516155163,127.087594157338,491-6151,"서울특별시 중랑구 겸재로49길 18, 신세대프라자 지하1층 (면목동)"
14,운동창고 PT GYM,https://search.pstatic.net/common/?autoRotate=true&type=w560_sharpen&src=https%3A%2F%2Fldb-phinf.pstatic.net%2F20150901_249%2F1441096044228onEQ6_JPEG%2F166552626220419_4.jpeg,null,37.59926587158443,127.09609531580188,493-5060,"서울특별시 중랑구 망우로 422, 원동빌딩 4층 (망우동)"
15,카인드 라이프 피트니스,https://search.pstatic.net/common/?autoRotate=true&type=w560_sharpen&src=https%3A%2F%2Fldb-phinf.pstatic.net%2F20210709_26%2F1625807552978QeUdN_JPEG%2Fi0p9Vm6omBQux5eYWH2hffTi.jpeg.jpg,3.86,37.59536438042755,127.08254010285911,436-9696,"서울특별시 중랑구 면목로 487, 지하2층 B201호 (상봉동)"
16,고구마 휘트니스,https://search.pstatic.net/common/?autoRotate=true&type=w560_sharpen&src=https%3A%2F%2Fldb-phinf.pstatic.net%2F20190809_205%2F1565313856483taUfa_JPEG%2FCuLGtLIRVqDaPHFisXAXwZpU.jpg,4.44,37.589470322610566,127.09053518873064,02-434-9696,"서울특별시 중랑구 상봉로 39, MS빌딩 4층 (면목동)"
17,팀키스 짐,https://search.pstatic.net/common/?autoRotate=true&type=w560_sharpen&src=https%3A%2F%2Fldb-phinf.pstatic.net%2F20200323_46%2F15849392830835vXwX_JPEG%2FfMkZcZiBN6VVDtFijbwH5cEg.jpg,4.39,37.59712416987617,127.0914660077125,495-5782,"서울특별시 중랑구 망우로60길 37, 3층 (망우동, 효성 써너스빌 에코)"
18,시너지 짐,https://search.pstatic.net/common/?autoRotate=true&type=w560_sharpen&src=https%3A%2F%2Fldb-phinf.pstatic.net%2F20211013_21%2F1634104221593fhJtK_JPEG%2FJHxAV_ZpW4XGKxmEOetqsA3U.jpg,null,37.57975712079425,127.08427424031056,02-6408-4471,"서울특별시 중랑구 면목로39길 8, 한성빌딩 6층 (면목동)"
19,J. PT GYM,https://search.pstatic.net/common/?autoRotate=true&type=w560_sharpen&src=https%3A%2F%2Fldb-phinf.pstatic.net%2F20191112_182%2F1573551977031MvOjc_JPEG%2FIMG_4772.,5,37.60476349395397,127.07569018101763,6012-9949,"서울특별시 중랑구 동일로 833, GM대우 4층 (중화동)"
20,쉴드짐,https://search.pstatic.net/common/?autoRotate=true&type=w560_sharpen&src=https%3A%2F%2Fldb-phinf.pstatic.net%2F20220715_28%2F1657863762885o5af8_JPEG%2FKakaoTalk_20220714_112406096_02.jpg,null,37.60180405893928,127.0784189115044,nan,"서울특별시 중랑구 봉화산로 61, 정신빌딩 3층 (중화동)"
21,커브스상봉클럽,https://search.pstatic.net/common/?autoRotate=true&type=w560_sharpen&src=https%3A%2F%2Fldb-phinf.pstatic.net%2F20211231_172%2F1640930209336fuPTR_PNG%2F%25C4%25BF%25BA%25EA%25BD%25BA_%25C8%25AB%25BA%25B8%25C0%25CC%25B9%25CC%25C1%25F6_%25281%2529.png,4.66,37.59685199788951,127.08327586023044,02-435-8230,"서울특별시 중랑구 망우로 305, 6층 (상봉동)"
22,트루짐,https://search.pstatic.net/common/?autoRotate=true&type=w560_sharpen&src=https%3A%2F%2Fldb-phinf.pstatic.net%2F20220704_111%2F1656910556363K6wJp_JPEG%2F84C3A436-90EA-43F2-A089-B14E8876F250.jpeg,null,37.57748031906533,127.08277642212664,nan,"서울특별시 중랑구 면목로 275-1, 2, 3층 (면목동)"
23,운동자판기 GYM,https://search.pstatic.net/common/?autoRotate=true&type=w560_sharpen&src=https%3A%2F%2Fldb-phinf.pstatic.net%2F20211216_24%2F1639634700178XTHMo_PNG%2F%25BC%25BE%25C5%25CD%25B7%25CE%25B0%25ED.png,null,37.59510824198175,127.0846484429098,nan,"서울특별시 중랑구 면목로92길 28, 2층 (상봉동, 리더스)"
24,워너비짐,https://search.pstatic.net/common/?autoRotate=true&type=w560_sharpen&src=https%3A%2F%2Fldb-phinf.pstatic.net%2F20201203_163%2F1606981547403UFvpI_JPEG%2FtOGnPI1UJ7V3smiKD-R6pRBm.jpg,null,37.58213163593619,127.08895714599062,nan,"서울특별시 중랑구 면목로48길 57, 4층 (면목동)"
25,쑤핏,null,null,37.61795126347663,127.10569880399603,02-3422-1811,"서울특별시 중랑구 신내역로1길 127-12, 2층 (신내동)"
26,온리엘 PT 스튜디오,https://search.pstatic.net/common/?autoRotate=true&type=w560_sharpen&src=https%3A%2F%2Fldb-phinf.pstatic.net%2F20210713_136%2F1626176224212OtB1V_JPEG%2FfSDwukgBpNKxbcdWdTPPUadb.jpg,4.83,37.598101159737865,127.08762368028492,nan,"서울특별시 중랑구 망우로 353, C동 209호, 210호 (상봉동, 상봉 프레미어스 엠코)"
27,린 휘트니스,https://search.pstatic.net/common/?autoRotate=true&type=w560_sharpen&src=https%3A%2F%2Fldb-phinf.pstatic.net%2F20220406_1%2F1649251064148vRySq_JPEG%2FKakaoTalk_20220317_130016124.jpg,null,37.58942041797646,127.09422879622582,nan,"서울특별시 중랑구 용마산로 426, 광진빌딩 2층 (면목동)"
28,코어스트롱 중랑구청점,https://search.pstatic.net/common/?autoRotate=true&type=w560_sharpen&src=https%3A%2F%2Fldb-phinf.pstatic.net%2F20220422_90%2F16506178026167xsOQ_JPEG%2FIMG_0134.jpg,4.56,37.60733558310961,127.09416550340868,02-435-0062,"서울특별시 중랑구 봉화산로 218, 지하2층 (신내동)"
29,리얼타임 피트니스,https://search.pstatic.net/common/?autoRotate=true&type=w560_sharpen&src=https%3A%2F%2Fldb-phinf.pstatic.net%2F20211224_63%2F16403531721263wQ93_JPEG%2F4F5313E7-9683-4A37-B02F-E30B7B8DB288.jpeg,4.55,37.59116382770082,127.09517074372371,nan,"서울특별시 중랑구 용마산로 448, 까치유치원 2,3층 (망우동)"
30,스트롱라인 면목점,https://search.pstatic.net/common/?autoRotate=true&type=w560_sharpen&src=https%3A%2F%2Fldb-phinf.pstatic.net%2F20201111_223%2F1605072141738ubJ2A_JPEG%2FC5yGou4Me__8Q-Lq-NLQyMHU.jpg,null,37.59319909362123,127.09017508895084,nan,"서울특별시 중랑구 상봉로 81, 청풍빌딩 2층 (면목동)"
31,크로스핏 파무짐,https://search.pstatic.net/common/?autoRotate=true&type=w560_sharpen&src=https%3A%2F%2Fldb-phinf.pstatic.net%2F20201130_253%2F1606725911385XfXLc_JPEG%2F6Yo-5X3I1NMC2zG1IEuaqOEB.jpg,4,37.6143379073017,127.07060182177212,02-972-9108,"서울특별시 중랑구 중랑천로 332, 상가동 1, 지하1층 101, B01호 (묵동, 묵동한국아파트)"
32,BODY EFFECT,https://search.pstatic.net/common/?autoRotate=true&type=w560_sharpen&src=https%3A%2F%2Fldb-phinf.pstatic.net%2F20220103_153%2F1641216483672Xd4vg_JPEG%2F8A4CB7BA-5B6F-47F9-A6F6-88896F506636.jpeg,null,37.60395121706916,127.07645610084856,nan,"서울특별시 중랑구 동일로 822, 3층 (중화동)"
33,HELIO GYM,https://search.pstatic.net/common/?autoRotate=true&type=w560_sharpen&src=https%3A%2F%2Fldb-phinf.pstatic.net%2F20220711_144%2F1657534812641isc3H_JPEG%2FKakaoTalk_20220711_191348858.jpg,null,37.59648512851474,127.08464524774276,nan,"서울특별시 중랑구 망우로 316, 이지팰리스 4층 402호 (상봉동)"
34,에이블짐 상봉역점,https://search.pstatic.net/common/?autoRotate=true&type=w560_sharpen&src=https%3A%2F%2Fldb-phinf.pstatic.net%2F20220624_255%2F1656047858842lLNbb_JPEG%2FKakaoTalk_20220620_160617050.jpg,5,37.59580386567343,127.0824331008357,nan,"서울특별시 중랑구 면목로 491, 주함해븐타워 지하2층 (상봉동)"
35,짐프릭 면목점,https://search.pstatic.net/common/?autoRotate=true&type=w560_sharpen&src=https%3A%2F%2Fldb-phinf.pstatic.net%2F20220607_68%2F1654596874634Sw6wO_JPEG%2FKakaoTalk_20220524_103807289_01.jpg,null,37.58462791853919,127.07724923685132,02-432-9679,"서울특별시 중랑구 동일로 608, 6층 (면목동)"
36,엠크루짐,https://search.pstatic.net/common/?autoRotate=true&type=w560_sharpen&src=https%3A%2F%2Fldb-phinf.pstatic.net%2F20220118_286%2F1642476620513AARqc_JPEG%2FKakaoTalk_20220118_120742010.jpg,null,37.61157332758107,127.07512419986864,02-978-9688,"서울특별시 중랑구 공릉로 8, 지하1층 (묵동, 대길빌딩)"
37,닥터바디짐,https://search.pstatic.net/common/?autoRotate=true&type=w560_sharpen&src=https%3A%2F%2Fldb-phinf.pstatic.net%2F20210413_130%2F1618250648793oVKuA_JPEG%2FxpmMr6j46stCdN509T962XrT.jpg,null,37.5834681831936,127.08529853767236,070-7783-8119,"서울특별시 중랑구 면목로 353, 경희솔한의원 3층 (면목동)"
38,프리빗 PT 스튜디오,https://search.pstatic.net/common/?autoRotate=true&type=w560_sharpen&src=https%3A%2F%2Fldb-phinf.pstatic.net%2F20220524_284%2F1653374201536DREtg_JPEG%2FKakaoTalk_20220524_153353710_06.jpg,null,37.59315690869505,127.07120293104197,02-491-7877,"서울특별시 중랑구 망우로 192, 2층 (상봉동)"
39,토니바디PT 용마점,https://search.pstatic.net/common/?autoRotate=true&type=w560_sharpen&src=https%3A%2F%2Fldb-phinf.pstatic.net%2F20220616_94%2F1655369368532E9HJ6_JPEG%2F53FE87D1-2385-492C-AAB5-043C1F5ADA31.jpeg,null,37.57643860029968,127.0831585917074,nan,"서울특별시 중랑구 면목로 266-1, 2층 (면목동)"
40,J-PT,https://search.pstatic.net/common/?autoRotate=true&type=w560_sharpen&src=https%3A%2F%2Fldb-phinf.pstatic.net%2F20191112_182%2F1573551977031MvOjc_JPEG%2FIMG_4772.,5,37.61249150482662,127.07517578922138,nan,"서울특별시 중랑구 공릉로 18, 3층 (묵동)"
41,콤마짐,https://search.pstatic.net/common/?autoRotate=true&type=w560_sharpen&src=https%3A%2F%2Fldb-phinf.pstatic.net%2F20220531_2%2F1654005393027zXghg_JPEG%2F20220531_195428.jpg,null,inf,inf,nan,"서울특별시 중랑구 양원역로10길 3, 제이타워 7층 (망우동)"
42,퍼플피플,https://search.pstatic.net/common/?autoRotate=true&type=w560_sharpen&src=https%3A%2F%2Fldb-phinf.pstatic.net%2F20220608_50%2F1654672249849abpXN_JPEG%2F%25B7%25CE%25B0%25ED.jpg,null,37.59891011116122,127.07530692991033,nan,"서울특별시 중랑구 중랑역로 62, 5층 (중화동)"
43,코어핏 PT&필라테스,https://search.pstatic.net/common/?autoRotate=true&type=w560_sharpen&src=https%3A%2F%2Fldb-phinf.pstatic.net%2F20220613_67%2F1655106940202kzfSu_JPEG%2FKakaoTalk_20220613_165429986.jpg,null,37.59523972994421,127.08596255864704,nan,"서울특별시 중랑구 봉우재로33길 65, 4층 (상봉동)"
44,뉴페이스짐,https://search.pstatic.net/common/?autoRotate=true&type=w560_sharpen&src=https%3A%2F%2Fldb-phinf.pstatic.net%2F20220713_187%2F1657684309849mWFyD_JPEG%2FKakaoTalk_20220713_125107562_12.jpg,null,37.59381569178558,127.08306963383885,nan,"서울특별시 중랑구 면목로 469, 2층 (상봉동, 대성타워)"
