,id,name,img,grade,lat,lng,phoneNumber,address,naver_map_url,address2
0,0,바운드짐,https://search.pstatic.net/common/?autoRotate=true&type=w560_sharpen&src=https%3A%2F%2Fldb-phinf.pstatic.net%2F20200618_219%2F1592471829056yvugB_JPEG%2F-xbp9oHI2-S9-j2k8YodJlS-.jpg,,37.4960795695469,126.891564274155,,"서울특별시 구로구 가마산로 280, 상가301,302호 (구로동, 구로2차순영웰라이빌)",12049117,서울 구로구 가마산로 280 구로2차순영웰라이빌 3층
1,1,동양휘트니스,,,37.485043510919,126.885750717271,,"서울특별시 구로구 구로동로5길 2, 오봉빌딩 3, 4층 (가리봉동)",18450989,서울 구로구 구로동로5길 2 오봉빌딩
2,2,DOB휘트니스,https://search.pstatic.net/common/?autoRotate=true&type=w560_sharpen&src=https%3A%2F%2Fldb-phinf.pstatic.net%2F20210524_244%2F1621848261105NFnEj_JPEG%2Fcx04levrzU8WtbNwADHpLfEC.jpeg.jpg,,37.492403480765,126.843387355249,02-2615-1402,"서울특별시 구로구 오류로8길 57, 6층 (오류동, 대성빌딩)",1717567112,서울 구로구 오류로8길 57 대성빌딩6층 DOB휘트니스
3,3,아이캔짐,https://search.pstatic.net/common/?autoRotate=true&type=w560_sharpen&src=https%3A%2F%2Fldb-phinf.pstatic.net%2F20190809_77%2F1565345338997M652p_JPEG%2FK406r5HALNYjKdbnVmIRkcpW.jpg,,37.4920938346959,126.855574487587,684-7581,서울특별시 구로구 개봉로 71 (개봉동),1251666087,서울 구로구 개봉로 71
4,4,리얼바디짐 오류점,https://search.pstatic.net/common/?autoRotate=true&type=w560_sharpen&src=https%3A%2F%2Fldb-phinf.pstatic.net%2F20181214_240%2F15447486971256cDAv_PNG%2FCPsxSH_uhH5TyFcS1fwQ00Zx.png,4.3,37.4943605889981,126.841050520575,,"서울특별시 구로구 경인로 176, 3층  301~304 및 306호 (오류동, 시티월드)",1638699586,서울 구로구 경인로 176 시티월드 3층
5,5,워너비짐,,,37.506486571093,126.845177028753,,"서울특별시 구로구 고척로27길 107 (개봉동,3층)",18487912,서울 구로구 고척로27길 107
6,6,온리유휘트니스,https://search.pstatic.net/common/?autoRotate=true&type=w560_sharpen&src=https%3A%2F%2Fldb-phinf.pstatic.net%2F20220203_244%2F1643836110295picvh_JPEG%2F4.jpg,4.52,37.5024345090279,126.881491595821,,"서울특별시 구로구 구로중앙로 174 (구로동, 구로역)",35905742,서울 구로구 구로중앙로 174
7,7,클래스짐,https://search.pstatic.net/common/?autoRotate=true&type=w560_sharpen&src=https%3A%2F%2Fldb-phinf.pstatic.net%2F20190214_17%2F1550121767585N09RS_JPEG%2Fa3wsIOfQ30aBo9a_4oCiReEE.jpg,,37.4935498831581,126.855813787742,,서울특별시 구로구 개봉로19길 39 (개봉동),37469020,서울 구로구 개봉로19길 39 개봉동청송빌딩
8,8,오버탑휘트니스,https://search.pstatic.net/common/?autoRotate=true&type=w560_sharpen&src=https%3A%2F%2Fldb-phinf.pstatic.net%2F20220704_33%2F1656927495600Dz5xd_PNG%2F1.png,4.78,37.5033062723055,126.881083869229,,"서울특별시 구로구 경인로 572, 스타팰리스 301~307호 (구로동)",1452603104,서울 구로구 경인로 572 스타팰리스 3층
9,9,노블휘트니스,https://search.pstatic.net/common/?autoRotate=true&type=w560_sharpen&src=https%3A%2F%2Fldb-phinf.pstatic.net%2F20181211_55%2F15445052493308V4S4_JPEG%2Fq40GYb23DzqsnwZQ1RF9HYH5.JPG.jpg,4.1,37.4825399425928,126.900246298277,855-6026,"서울특별시 구로구 시흥대로 551 (구로동,광희빌딩 B2)",32731147,서울 구로구 시흥대로 551 광희빌딩
10,10,비나이더 구로점,https://search.pstatic.net/common/?autoRotate=true&type=w560_sharpen&src=https%3A%2F%2Fldb-phinf.pstatic.net%2F20220616_229%2F1655364222866Juk5C_PNG%2F220615_%25BA%25F1%25BA%25EA%25B6%25F3%25B4%25F5_%25B3%25D7%25C0%25CC%25B9%25F6%25BD%25BA%25B8%25B6%25C6%25AE%25C7%25C3%25B7%25B9%25C0%25CC%25BD%25BA_%25BD%25E6%25B3%25D7%25C0%25CF_%25BA%25F1%25B3%25AA%25C0%25CC%25B4%25F5%25BF%25EB%25BA%25F1%25B3%25AA%25C0%25CC%25B4%25F5.png,,37.5010207998508,126.889643966622,,"서울특별시 구로구 공원로 47, B1호 (구로동,두산베어스타워)",1274795216,서울 구로구 공원로 47 지하1층
11,11,IXU 웰니스 짐,https://search.pstatic.net/common/?autoRotate=true&type=w560_sharpen&src=https%3A%2F%2Fldb-phinf.pstatic.net%2F20210125_247%2F1611548349322C0hXP_JPEG%2F3pyoLtZs_kIc1QtE-ti4WD4J.jpg,4.96,37.4859830345254,126.898424258286,02-853-8753,"서울특별시 구로구 도림천로 446, 101동 B101호 (구로동,예성유토피아)",13081954,서울 구로구 도림천로 446 102동 B1
12,12,로망 휘트니스,https://search.pstatic.net/common/?autoRotate=true&type=w560_sharpen&src=https%3A%2F%2Fldb-phinf.pstatic.net%2F20220614_103%2F16551842019837qtCk_JPEG%2FKakaoTalk_20220614_142147344_09.jpg,,37.5076133389724,126.863104491675,,"서울특별시 구로구 중앙로14길 31 (고척동,신성빌딩 5층)",1613655457,서울 구로구 중앙로14길 31 5층 신성빌딩
13,13,랩스 휘트니스 구로구청점,https://search.pstatic.net/common/?autoRotate=true&type=w560_sharpen&src=https%3A%2F%2Fldb-phinf.pstatic.net%2F20220504_104%2F1651637369944CzUlX_PNG%2F%25B1%25B8%25B7%25CE%25B1%25B8%25C3%25BB%25B7%25CE%25B0%25ED.png,4.62,37.495860314768,126.888807280468,,"서울특별시 구로구 구로중앙로 68, 지층 B01,09호 (구로동, 신안타워)",1651264250,서울 구로구 구로중앙로 68 지하 1층
14,14,제이디엘스포츠클럽,https://search.pstatic.net/common/?autoRotate=true&type=w560_sharpen&src=https%3A%2F%2Fldb-phinf.pstatic.net%2F20220610_252%2F16548024419738WKVk_JPEG%2Fjdl%25BD%25BA%25C6%25F7%25C3%25F7%25C5%25AC%25B7%25B4.jpg,4.15,37.5070438414784,126.890227293528,,"서울특별시 구로구 새말로 97, 14층 (구로동, 신도림테크노마트)",38478588,서울 구로구 새말로 97 신도림테크노마트 14층
15,15,웰브릿지 스포츠,https://search.pstatic.net/common/?autoRotate=true&type=w560_sharpen&src=https%3A%2F%2Fldb-phinf.pstatic.net%2F20170418_257%2F1492491999576M5hGw_JPEG%2F186368543659354_0.jpeg,,37.4939815627221,126.872427757189,,"서울특별시 구로구 구일로8길 6 (구로동,근상프리즘팰리스 지하1층)",13021843,서울 구로구 구일로8길 6 근상프리즘팰리스
16,16,머슬마인드 구로디지털 본점,https://search.pstatic.net/common/?autoRotate=true&type=w560_sharpen&src=https%3A%2F%2Fldb-phinf.pstatic.net%2F20220627_70%2F1656316487841hSI1u_JPEG%2FKakaoTalk_20220627_164730311.jpg,4.66,37.4826214603234,126.899051675315,,"서울특별시 구로구 디지털로32가길 13, 2층,3층 (구로동)",13003059,서울 구로구 디지털로32가길 13
17,17,팀레드 휘트니스,https://search.pstatic.net/common/?autoRotate=true&type=w560_sharpen&src=https%3A%2F%2Fldb-phinf.pstatic.net%2F20220413_251%2F1649832741469SYSSv_JPEG%2F%25C1%25A6%25B8%25F1%25C0%25BB-%25C0%25D4%25B7%25C2%25C7%25D8%25C1%25D6%25BC%25BC%25BF%25E4_-001.jpg,,37.4999880723052,126.884098218095,02-6678-8245~6,"서울특별시 구로구 구로중앙로 134, 2층 (구로동, 나인스에비뉴)",34105294,서울 구로구 구로중앙로 134 리치몰 2층 팀레드 휘트니스
18,18,신원 건강랜드,https://search.pstatic.net/common/?autoRotate=true&type=w560_sharpen&src=https%3A%2F%2Fldb-phinf.pstatic.net%2F20220501_168%2F165139081853135PU2_JPEG%2FEEC129C4-0EB2-442E-BBDD-2ED48023FE08.jpeg,4.16,37.4992309400309,126.86358074399,2689-2858,"서울특별시 구로구 중앙로1길 18-18 (고척동,신원프라자  지층)",18452950,서울 구로구 중앙로1길 18-18
19,19,제이짐 휘트니스클럽,https://search.pstatic.net/common/?autoRotate=true&type=w560_sharpen&src=https%3A%2F%2Fldb-phinf.pstatic.net%2F20180203_260%2F1517633797680CI53K_JPEG%2F_pKJdBDZHXkww1C4NEHabuMm.JPG.jpg,4.38,37.503639878923,126.879713872189,02-2631-8831,"서울특별시 구로구 경인로 565 (구로동,B01)",20521012,서울 구로구 경인로 565 삼영빌딩
20,20,Fit Boss GYM,https://search.pstatic.net/common/?autoRotate=true&type=w560_sharpen&src=https%3A%2F%2Fldb-phinf.pstatic.net%2F20201216_273%2F1608111356535K7oPM_JPEG%2FoQPqVefQbngdw44TcF1g5hZk.jpg,,37.503212283826,126.891555881924,070-8725-1122,"서울특별시 구로구 새말로16길 56, 1층 101호 (구로동, 예원아파트)",20717393,서울 구로구 새말로16길 56 예원아파트 1층 101호 핏보스짐
21,21,함서Gym 휘트니스,https://search.pstatic.net/common/?autoRotate=true&type=w560_sharpen&src=https%3A%2F%2Fldb-phinf.pstatic.net%2F20220516_89%2F1652679101090Sgz8a_JPEG%2FKakaoTalk_20220501_203655439.jpg,4.85,37.497337343411,126.892219821837,02-859-5587,"서울특별시 구로구 가마산로 291, 지하2층 (구로동, 케이티텔레캅빌딩 )",31462491,서울 구로구 가마산로 291 KT텔레캅빌딩 지하2층
22,22,올라운드짐,https://search.pstatic.net/common/?autoRotate=true&type=w560_sharpen&src=https%3A%2F%2Fldb-phinf.pstatic.net%2F20220603_183%2F1654251165107aPPPw_JPEG%2FvUNYLkOybSUEUilgiSbGHcc5.JPG.jpg,4.85,37.4859231683292,126.897336395657,02-2082-0087,"서울특별시 구로구 디지털로 306, 4층 407,408호 (구로동, 대륭포스트타워2차)",1772740212,서울 구로구 디지털로 306 407호
23,23,코끼리짐,https://search.pstatic.net/common/?autoRotate=true&type=w560_sharpen&src=https%3A%2F%2Fldb-phinf.pstatic.net%2F20220413_267%2F16498489033281l7a5_JPEG%2F18.jpg,4.5,37.4963835746364,126.8609473327,,"서울특별시 구로구 경인로 368, 3층 (개봉동, 삼성디지털플라자)",1768703962,서울 구로구 경인로 368 삼성디지털 플라자 3층
24,24,다온핏,https://search.pstatic.net/common/?autoRotate=true&quality=95&type=w750&src=https%3A%2F%2Fldb-phinf.pstatic.net%2F20210715_283%2F1626305445904icdpC_JPEG%2FS_vUq_SohZ7L4dgj8PHbMC9n.jpg,,37.4932603468144,126.858686334102,02-2688-4425,서울특별시 구로구 개봉로20길 78 (개봉동),1148971108,서울 구로구 개봉로20길 78 3층
25,25,뉴욕휘트니스,https://search.pstatic.net/common/?autoRotate=true&type=w560_sharpen&src=https%3A%2F%2Fldb-phinf.pstatic.net%2F20220513_160%2F1652415117669dTkQB_JPEG%2F16524150832713742464539426311930.jpg,4.6,37.4861927709787,126.855789032801,02-2614-6666,서울특별시 구로구 개봉로3길 9 (개봉동),1669276885,서울 구로구 개봉로3길 9 지하
26,26,라인팩토리,https://search.pstatic.net/common/?autoRotate=true&type=w560_sharpen&src=https%3A%2F%2Fldb-phinf.pstatic.net%2F20220122_117%2F1642845232529MuOpF_JPEG%2F1639981149520.jpg,,37.4920105958203,126.856325030026,02-2685-0416,"서울특별시 구로구 개봉로 72, 3층 (개봉동)",32496514,서울 구로구 개봉로 72 서원빌딩3층
27,27,리커버리 휘트니스,https://search.pstatic.net/common/?autoRotate=true&type=w560_sharpen&src=https%3A%2F%2Fldb-phinf.pstatic.net%2F20210521_296%2F1621579642422XEzHt_JPEG%2FBbXSxNcL9l_Drk4giUrgjPLl.jpg,4.54,37.5070184274417,126.861730619846,,"서울특별시 구로구 중앙로14길 15-1, 4층,5층 (고척동)",1744784037,서울 구로구 중앙로14길 15-1 창성빌딩 4층 5층
28,28,체인지 업 휘트니스,https://search.pstatic.net/common/?autoRotate=true&type=w560_sharpen&src=https%3A%2F%2Fldb-phinf.pstatic.net%2F20200124_129%2F1579841303547GCaQT_JPEG%2F5gdoeP8FwON62xbIU4QA43HW.jpg,,37.4958697211019,126.876938492422,02-865-8055,"서울특별시 구로구 구일로10길 93, 5층 (구로동, 사모아쇼핑)",1061114546,서울 구로구 구일로10길 93
29,29,조아짐,https://search.pstatic.net/common/?autoRotate=true&quality=95&type=w750&src=https%3A%2F%2Fldb-phinf.pstatic.net%2F20180804_192%2F1533384033724ONBww_JPEG%2F80w4JpYVHLAVKe0KA-DvDvfl.jpeg.jpg,,37.4923947111819,126.820441580495,02-2688-9696,"서울특별시 구로구 부일로1길 30, 2층 (온수동)",37625324,서울 구로구 부일로1길 30
30,30,리얼바디짐 고척점,https://search.pstatic.net/common/?autoRotate=true&type=w560_sharpen&src=https%3A%2F%2Fldb-phinf.pstatic.net%2F20181214_186%2F1544748786530bB4xN_PNG%2FrIuxQ7-VjAliGxKqjEIOJ8af.png,4.23,37.5034895022417,126.862614065124,02-2625-8800,"서울특별시 구로구 중앙로10길 7, 3층 (고척동, 고척프라자)",38233492,서울 구로구 중앙로10길 7
31,31,아프로 휘트니스,https://search.pstatic.net/common/?autoRotate=true&type=w560_sharpen&src=https%3A%2F%2Fldb-phinf.pstatic.net%2F20220419_148%2F16503371262277kpE1_JPEG%2F20220418_173025.jpg,3.93,37.5049174628463,126.877135134148,,"서울특별시 구로구 구로중앙로 215, 7층 (구로동)",38506732,서울 구로구 구로중앙로 215 6층
32,32,크로스핏 잭팟,https://search.pstatic.net/common/?autoRotate=true&type=w560_sharpen&src=https%3A%2F%2Fldb-phinf.pstatic.net%2F20190605_174%2F1559708972953WYYWc_JPEG%2FyeW8LapXWZ7LxlRrErk4LgCL.jpg,,37.4999880723052,126.884098218095,02-6678-8022,"서울특별시 구로구 구로중앙로 134, 지층 라 88호 외 46호 (구로동, 신구로자이나인스에비뉴)",711148667,"서울 구로구 구로중앙로 134 신구로자이 리치몰 (구 나인스에비뉴) B1,"
33,33,투맨핏,https://search.pstatic.net/common/?autoRotate=true&type=w560_sharpen&src=https%3A%2F%2Fldb-phinf.pstatic.net%2F20180130_168%2F1517289792340dWzW1_JPEG%2Fs02oNxbhxoJ0WnqvsQD3xrop.jpg,,37.4928802334449,126.859308079005,,"서울특별시 구로구 개봉로20길 6, 상가1동 3층 303호 (개봉동, 현대아파트1단지)",1512593394,서울 구로구 개봉로20길 6 현대상가 3층 투맨핏
34,34,렉시짐,https://search.pstatic.net/common/?autoRotate=true&type=w560_sharpen&src=https%3A%2F%2Fldb-phinf.pstatic.net%2F20220516_287%2F1652671526774EI8Bo_JPEG%2FScreenshot_20210112-224856_Drive.jpg,4.38,37.4906772205495,126.856345223758,02-2687-1112,"서울특별시 구로구 개봉로 56, 지층 (개봉동)",1400159216,서울 구로구 개봉로 56 지하1층
35,35,PK GYM,,,37.4811291019439,126.895303784633,,"서울특별시 구로구 디지털로26길 61, 에이스하이엔드타워2차 3층 304호 (구로동)",1402590355,서울 구로구 디지털로26길 61 3층 304호 피케이짐
36,36,STAY GYM,,,37.4965752295643,126.87362950335,028373373,"서울특별시 구로구 구일로8길 63, B층 101호 (구로동, 구로한신아파트)",1484035050,서울 구로구 구일로8길 63
37,37,LIGHT FIT,https://search.pstatic.net/common/?autoRotate=true&type=w560_sharpen&src=https%3A%2F%2Fldb-phinf.pstatic.net%2F20190424_115%2F15560862185777KAAA_JPEG%2FoTGzzQv6_MHj3TCK5DExxH6J.jpg,,37.5064475900729,126.858868564946,02-2688-8531,"서울특별시 구로구 고척로 233, 텐타워빌딩 3층 (고척동)",1968179759,서울 구로구 고척로 233 텐타워빌딩3층 LIGHT FIT
38,38,Eunoia GYM,https://search.pstatic.net/common/?autoRotate=true&type=w560_sharpen&src=https%3A%2F%2Fldb-phinf.pstatic.net%2F20180626_98%2F1530010930658peSpK_JPEG%2FhSl1HEXi8Y4404Gc5HQ3z0SZ.jpg,,37.4914659607036,126.822953426072,0226255346,"서울특별시 구로구 경인로3길 93, 4층 (온수동)",1344912393,서울 구로구 경인로3길 93 온수빌딩4층 Eunoia GYM
39,39,라인짐 필라테스 PT,https://search.pstatic.net/common/?autoRotate=true&type=w560_sharpen&src=https%3A%2F%2Fldb-phinf.pstatic.net%2F20191112_157%2F1573554703738Hjp86_JPEG%2FVL2k6OIAAaMMSYrEjbLs1OcR.jpg,5.0,37.4844975405616,126.89331047608,02-2109-1191,"서울특별시 구로구 디지털로29길 38, 에이스테크노타워Ⅲ 2층 211-1호 (구로동)",1767841540,서울 구로구 디지털로29길 38
40,40,휘트니스 피플 우먼 구로디지털단지점,https://search.pstatic.net/common/?autoRotate=true&type=w560_sharpen&src=https%3A%2F%2Fldb-phinf.pstatic.net%2F20210804_187%2F1628052619326XhXNM_JPEG%2Fbi1hC0YKa7qABf_5jiaK3hyv.jpg,4.87,37.4859231683292,126.897336395657,,"서울특별시 구로구 디지털로 306, 대륭포스트타워2차 구로동동 B130, B131호 (구로동)",1869055113,서울 구로구 디지털로 306 대륭포스트타워2차 지하1층 휘트니스피플
41,41,필라트니스,https://search.pstatic.net/common/?autoRotate=true&type=w560_sharpen&src=https%3A%2F%2Fldb-phinf.pstatic.net%2F20190628_227%2F1561699475970yWsMA_JPEG%2Fkib0wk87b1YRGl5XK87mkb8p.jpg,,37.5053620384094,126.889371344865,,"서울특별시 구로구 새말로 85, B102호 (구로동)",1123699592,서울 구로구 새말로 85
42,42,오렌지 휘트니스,https://search.pstatic.net/common/?autoRotate=true&type=w560_sharpen&src=https%3A%2F%2Fldb-phinf.pstatic.net%2F20210823_95%2F1629714215443BOgW1_JPEG%2FXB2buCiwKXcVjCZ-qNjF5yi7.jpg,,37.49576046373,126.842584579433,02-2687-6885,"서울특별시 구로구 경인로 193, 상임빌딩 5층 (오류동)",13475220,서울 구로구 경인로 193 상임빌딜 5층
43,43,지오필라테스앤헬스,https://search.pstatic.net/common/?autoRotate=true&type=w560_sharpen&src=https%3A%2F%2Fldb-phinf.pstatic.net%2F20200116_188%2F1579151319691sthiO_JPEG%2Fr1g5FzJTYph5aGaUSglD7BDK.jpg,4.79,37.4948276444987,126.859818382428,02-2060-2121,"서울특별시 구로구 개봉로23가길 70, 3층 (개봉동)",1410608721,서울 구로구 개봉로23가길 70 3층 지오필라테스앤헬스 개봉역점
44,44,메이크유 필라테스&PT,https://search.pstatic.net/common/?autoRotate=true&type=w560_sharpen&src=https%3A%2F%2Fldb-phinf.pstatic.net%2F20191219_15%2F1576725545132QTDqY_JPEG%2FOrXFgIaCIoc0MilnaetFPjyP.jpg,4.94,37.4976995650402,126.863870881484,02-2682-9682,"서울특별시 구로구 경인로 397, 골든타워빌딩 4층 (고척동)",1902887593,서울 구로구 경인로 397 4층
45,45,FORWARD GYM,https://search.pstatic.net/common/?autoRotate=true&type=w560_sharpen&src=https%3A%2F%2Fldb-phinf.pstatic.net%2F20220708_113%2F1657254138272Evm5u_JPEG%2F%25C6%25F7%25BF%25F6%25B5%25E5%25C1%25FC.jpg,5.0,37.4799844756506,126.823166953337,02-2066-2356,"서울특별시 구로구 서해안로 2098, 항동프라자 401호 (항동)",1982973663,"서울 구로구 서해안로 2098 , 항동프라자 4층"
46,46,원메디짐,https://search.pstatic.net/common/?autoRotate=true&type=w560_sharpen&src=https%3A%2F%2Fldb-phinf.pstatic.net%2F20210405_27%2F1617606127504tkqKu_JPEG%2F5xjHSAn0ZucO7z5JY9LSHtox.JPG.jpg,,37.4979584319431,126.864347749519,02-2688-7750,"서울특별시 구로구 경인로 403, 원메디타운 A동 401,402호 (고척동)",32794561,서울 구로구 경인로 403
47,47,피티시모,https://search.pstatic.net/common/?autoRotate=true&type=w560_sharpen&src=https%3A%2F%2Fldb-phinf.pstatic.net%2F20220302_39%2F1646225001088l8653_JPEG%2FKakaoTalk_20220226_141238916_02.jpg,5.0,37.5090492151745,126.8869873429,,"서울특별시 구로구 경인로 661, 신도림1차푸르지오 (신도림동)",1114517612,서울 구로구 경인로 661 1차 푸르지오 B1홈플러스 내 피티시모 Fitness
48,48,남스짐 천왕점,https://search.pstatic.net/common/?autoRotate=true&type=w560_sharpen&src=https%3A%2F%2Fldb-phinf.pstatic.net%2F20220413_22%2F1649814827893f8I79_JPEG%2FBB6288DE-1EFE-4D12-A307-CA0B2FAE6CDD.jpeg,4.99,37.4808996260751,126.83937984931,02-2686-3337,"서울특별시 구로구 천왕로 36, 천왕센타프라자 407, 408호 (천왕동)",1017081459,서울 구로구 천왕로 36 4층 남스짐
49,49,로키크로스핏,https://search.pstatic.net/common/?autoRotate=true&type=w560_sharpen&src=https%3A%2F%2Fldb-phinf.pstatic.net%2F20190730_164%2F1564475801430uestY_JPEG%2FPzenxKPLz6eKVU5NAfRtgzzD.jpg,4.95,37.5107095498229,126.889232363437,,"서울특별시 구로구 경인로67길 23, 101동 B101호 (신도림동, 신도림2차푸르지오)",38010301,서울 구로구 경인로67길 23 101동 B101호 푸르지오 2차
50,50,혁짐,https://search.pstatic.net/common/?autoRotate=true&type=w560_sharpen&src=https%3A%2F%2Fldb-phinf.pstatic.net%2F20210306_257%2F16149835411519KG3n_JPEG%2F4BQTuqdOiJMbIrvshVqXZMTW.jpeg.jpg,4.85,37.480597855409,126.823994013273,,"서울특별시 구로구 서해안로 2108, 아이온타워2 5층 501,502,503,504호 (항동)",1036049933,서울 구로구 서해안로 2108 5층
51,51,우리 크로스핏 구디,https://search.pstatic.net/common/?autoRotate=true&type=w560_sharpen&src=https%3A%2F%2Fldb-phinf.pstatic.net%2F20220413_69%2F1649846216841fLA5O_JPEG%2FKakaoTalk_20220121_211311556_01.jpg,,37.4839940591296,126.900756551498,,"서울특별시 구로구 디지털로32나길 22, 지하1층 (구로동)",1720241588,서울 구로구 디지털로32나길 22
52,52,포에프 트레이닝,https://search.pstatic.net/common/?autoRotate=true&type=w560_sharpen&src=https%3A%2F%2Fldb-phinf.pstatic.net%2F20210715_248%2F16263229849838r08a_PNG%2FKRtpW6NlWD6XIuzaagvvMFCm.png,5.0,37.5038211816766,126.881697047054,,"서울특별시 구로구 경인로 584, 2층 209호 (신도림동, 신도림팰러티움)",1178266729,서울 구로구 경인로 584 2층 209호
53,53,4 in 1 PT,,,37.5057871324878,126.85824878572,,"서울특별시 구로구 고척로 228-6, 종만빌딩 지층 1호 (고척동)",1130537963,서울 구로구 고척로 228-6
54,54,짐박스피트니스 구로디지털단지점,https://search.pstatic.net/common/?autoRotate=true&type=w560_sharpen&src=https%3A%2F%2Fldb-phinf.pstatic.net%2F20210817_3%2F1629172278826ziQja_JPEG%2F-SOoroh82ypfYEIvUk-d3Qbt.jpg,4.81,37.4849270383011,126.896538036905,070-8873-5650,"서울특별시 구로구 디지털로 300, 지밸리비즈플라자 판매B101호 (구로동)",1152998374,서울 구로구 디지털로 300 지하1층
55,55,리커버헬스&필라테스,https://search.pstatic.net/common/?autoRotate=true&type=w560_sharpen&src=https%3A%2F%2Fldb-phinf.pstatic.net%2F20210829_185%2F1630238954271XO6fa_JPEG%2FDUhYxT1MVMftZ_bKhqnjAQgi.jpeg.jpg,4.86,37.5057800099527,126.891405479352,02-858-5888,"서울특별시 구로구 새말로 102, 신도림포스빌 지하101-4호 (구로동)",1276370563,서울 구로구 새말로 102 신도림포스빌 b101-4호
56,56,멋GYM,https://search.pstatic.net/common/?autoRotate=true&type=w560_sharpen&src=https%3A%2F%2Fldb-phinf.pstatic.net%2F20180724_223%2F1532410522334aPJJF_JPEG%2F8ZyTtN5sehOMTJkta6FDmezM.jpeg.jpg,,37.4875235978289,126.826163535057,0226104353,"서울특별시 구로구 연동로 320, 성공회대학교 미가엘관  지층 (항동)",1932322693,서울 구로구 연동로 320 성공회대학교 미가엘기숙사 1층
57,57,드라코짐,https://search.pstatic.net/common/?autoRotate=true&type=w560_sharpen&src=https%3A%2F%2Fldb-phinf.pstatic.net%2F20210926_95%2F1632634205484RsiKq_JPEG%2FwrAi3BNqtSY0WDK5UjnuUX1O.jpeg.jpg,5.0,37.4812104426582,126.824776655534,,"서울특별시 구로구 서해안로 2118, 골든클래스 503,504호 (항동)",1873071219,서울 구로구 서해안로 2118 골든클래스 5층 드라코짐
58,58,EMS 바디발전소,https://search.pstatic.net/common/?autoRotate=true&type=w560_sharpen&src=https%3A%2F%2Fldb-phinf.pstatic.net%2F20220308_9%2F1646705699460oK0YN_JPEG%2FKakaoTalk_20220308_111102792_05.jpg,,37.4857057781612,126.895512679788,,"서울특별시 구로구 디지털로33길 11, 에이스테크노타워8차 208호 (구로동)",1003071933,서울 구로구 디지털로33길 11 에이스테크노타워8차 208호
