id,name,img,grade,lat,lng,phoneNumber,address
0,헬스파크,https://search.pstatic.net/common/?autoRotate=true&type=w560_sharpen&src=https%3A%2F%2Fldb-phinf.pstatic.net%2F20200923_16%2F1600848341849zldmD_PNG%2FERLpWFB0xXcs0syZ0Phsjh1G.png,,37.59388048261728,127.05532710982907,968-7995,"서울특별시 동대문구 이문로 73, 2층 (이문동)"
1,에센휘트니스 크럽,https://search.pstatic.net/common/?autoRotate=true&type=w560_sharpen&src=https%3A%2F%2Fldb-phinf.pstatic.net%2F20150831_34%2F1441008909804rVD2K_JPEG%2FSUBMIT_1351305413297_12057627.jpg,,37.569725633066255,127.07171625447899,,"서울특별시 동대문구 장안벚꽃로 107, 상가동 311호 (장안동, 장안현대홈타운)"
2,에스라인 휘트니스,https://search.pstatic.net/common/?autoRotate=true&quality=95&type=w750&src=https%3A%2F%2Fldb-phinf.pstatic.net%2F20180927_59%2F1538006410160FRD7o_JPEG%2Fvqz1wWIZY9WO-vQttregmqcy.jpg,,37.59938460039715,127.05454154944744,,서울특별시 동대문구 천장산로 39 (이문동)
3,뉴파워짐,https://search.pstatic.net/common/?autoRotate=true&type=w560_sharpen&src=https%3A%2F%2Fldb-phinf.pstatic.net%2F20210322_113%2F1616399448205Sv8Ts_JPEG%2F9h6blf-lKKRM3hCBH-uqA4Fh.jpg,4.57,37.5789412831116,127.06509721592548,,"서울특별시 동대문구 사가정로 207, 삼협메디스빌딩 6, 7층 (장안동)"
4,에스엔비 휘트니스,https://search.pstatic.net/common/?autoRotate=true&type=w560_sharpen&src=https%3A%2F%2Fldb-phinf.pstatic.net%2F20210623_144%2F16244274934037D3NM_JPEG%2FWw6AV3xyxeKq80Iqhmah086P.jpg,4.15,37.57130609465102,127.0711638392733,1544-6857,서울특별시 동대문구 답십리로72길 18 (장안동)
5,힐 휘트니스,https://search.pstatic.net/common/?autoRotate=true&type=w560_sharpen&src=https%3A%2F%2Fldb-phinf.pstatic.net%2F20220614_111%2F1655195551478SqWLg_JPEG%2FKakaoTalk_20210323_184754050.jpg,,37.57375997066142,127.06066781237112,2214-5200,서울특별시 동대문구 답십리로 209 (답십리동)
6,휘트니스 월드,https://search.pstatic.net/common/?autoRotate=true&quality=95&type=w750&src=https%3A%2F%2Fldb-phinf.pstatic.net%2F20200403_118%2F1585908980119UDXE0_JPEG%2FHDIPerrv7TJkeKAE3Jm0NjhZ.jpg,,37.57571933308003,127.06483351861372,,"서울특별시 동대문구 한천로 166, 2층 (장안동)"
7,헬스보이짐 장안점,https://search.pstatic.net/common/?autoRotate=true&type=w560_sharpen&src=https%3A%2F%2Fldb-phinf.pstatic.net%2F20220714_113%2F165776930078799Tql_PNG%2Fa.png,4.72,37.57167075412606,127.06696963923885,2217-8989,"서울특별시 동대문구 장한로 119, 지층 (장안동)"
8,TRUST GYM,https://search.pstatic.net/common/?autoRotate=true&type=w560_sharpen&src=https%3A%2F%2Fldb-phinf.pstatic.net%2F20210219_36%2F1613714595154GKUG3_JPEG%2FXq_ULnFXdfpadOvEF7GY-bj_.jpg,4.34,37.595914865780976,127.05908278208689,965-9688,"서울특별시 동대문구 휘경로 15, 6,7층 (이문동)"
9,투엑스휘트니스,https://search.pstatic.net/common/?autoRotate=true&type=w560_sharpen&src=https%3A%2F%2Fldb-phinf.pstatic.net%2F20220413_247%2F16498275094591Wny9_JPEG%2F02.jpg,4.69,37.56627370091994,127.05929113822478,2242-9811,"서울특별시 동대문구 한천로 42 (장안동, 위더스빌)"
10,한신휘트니스,,,37.58892455899904,127.03626496136972,,서울특별시 동대문구 고산자로 534 (제기동)
11,머슬허슬,https://search.pstatic.net/common/?autoRotate=true&type=w560_sharpen&src=https%3A%2F%2Fldb-phinf.pstatic.net%2F20190712_158%2F1562859847793IsMb9_JPEG%2FJz52PanjN6tW6ws8vaLaIHg6.jpg,,37.59062481388994,127.033805867897,,서울특별시 동대문구 종암로 2-1 (제기동)
12,H-body 휘트니스,https://search.pstatic.net/common/?autoRotate=true&type=w560_sharpen&src=https%3A%2F%2Fldb-phinf.pstatic.net%2F20150901_190%2F1441069306434Li5Sb_JPEG%2FSUBMIT_1426126354259_36406749.jpg,,37.57844573915576,127.0550303116618,02-3394-7111,서울특별시 동대문구 전농로16길 9 (전농동)
13,삼성휘트니스클럽,https://search.pstatic.net/common/?autoRotate=true&type=w560_sharpen&src=https%3A%2F%2Fldb-phinf.pstatic.net%2F20220420_273%2F1650437480246YbpgH_JPEG%2F20210704_143425.jpg,4.3,37.57318055925415,127.05432780331552,02-2244-2450,서울특별시 동대문구 전농로 91 (답십리동)
14,HTV 휘트니스,https://search.pstatic.net/common/?autoRotate=true&type=w560_sharpen&src=https%3A%2F%2Fldb-phinf.pstatic.net%2F20211111_187%2F1636628619950f0FSX_JPEG%2F1.jpg,,37.590977776331805,127.06149797540313,02-3394-5155,서울특별시 동대문구 망우로 101 (휘경동)
15,라온 퍼스널트레이닝,https://search.pstatic.net/common/?autoRotate=true&type=w560_sharpen&src=https%3A%2F%2Fldb-phinf.pstatic.net%2F20211007_70%2F1633600625796yb8vs_JPEG%2F7LtgmhxnyrjnT0HbSsGuGshG.jpg,4.9,37.59020913226275,127.05476509329465,,서울특별시 동대문구 회기로 195 (휘경동)
16,와치 휘트니스,https://search.pstatic.net/common/?autoRotate=true&type=w560_sharpen&src=https%3A%2F%2Fldb-phinf.pstatic.net%2F20200727_238%2F1595807602514rVjyr_JPEG%2Fr4t2XxYseSzubgIreIOtl8fK.jpg,,37.57779262531015,127.05884956762351,02-2215-1080,"서울특별시 동대문구 사가정로 150, 2층 (전농동)"
17,New Body Gym,https://search.pstatic.net/common/?autoRotate=true&type=w560_sharpen&src=https%3A%2F%2Fldb-phinf.pstatic.net%2F20210325_243%2F161666075550316QyQ_PNG%2FFGIPJyr16JyuirOwGPzeTSOW.png,,37.56633751240968,127.06537028779124,02-2215-1500,서울특별시 동대문구 장한로 60 (장안동)
18,크로스핏 리스펙,https://search.pstatic.net/common/?autoRotate=true&type=w560_sharpen&src=https%3A%2F%2Fldb-phinf.pstatic.net%2F20211105_285%2F1636080562665drf6n_JPEG%2F_q9gMUlspsvPVI7wy14HpuQS.jpg,,37.59051995821233,127.05732175982149,,"서울특별시 동대문구 망우로21길 52, 지하1층 (휘경동)"
19,시티짐 퍼플,,4.55,37.5676279777179,127.04941941918989,02-3394-6411,서울특별시 동대문구 천호대로 281 (답십리동)
20,MJ 스포랜드,https://search.pstatic.net/common/?autoRotate=true&type=w560_sharpen&src=https%3A%2F%2Fldb-phinf.pstatic.net%2F20210512_37%2F16208015366531pdAn_JPEG%2FTuRNCFjub627QZSmWAF_CxFt.jpg,4.27,37.58865622630333,127.05077918747496,02-966-7001,"서울특별시 동대문구 이문로 3, 3층 (회기동)"
21,더빠짐,https://search.pstatic.net/common/?autoRotate=true&type=w560_sharpen&src=https%3A%2F%2Fldb-phinf.pstatic.net%2F20200102_190%2F1577936973451gtI5G_JPEG%2FbR4-qIE8eDP_va9ieEVvaNrQ.jpg,,37.58634258848398,127.03526171183005,02-6082-5605,"서울특별시 동대문구 제기로 46, 4층 좌측호 (제기동)"
22,트리플에이짐(Triple A Gym),https://search.pstatic.net/common/?autoRotate=true&type=w560_sharpen&src=https%3A%2F%2Fldb-phinf.pstatic.net%2F20181211_176%2F1544538118926qs4lY_JPEG%2FKADa9rLdXdOMmDCufD5K0FNV.jpg,4.5,37.583895738388186,127.05112142842712,02-3390-4450,"서울특별시 동대문구 서울시립대로 155, 2, 3층 (전농동)"
23,스포애니 신설동역점,https://search.pstatic.net/common/?autoRotate=true&type=w560_sharpen&src=https%3A%2F%2Fldb-phinf.pstatic.net%2F20190121_224%2F1548051005401X17Wb_JPEG%2FFGc0aW7lOeWaChBIqT0oBUl1.JPG.jpg,3.98,37.57537982954688,127.02146503502613,02-953-9618,서울특별시 동대문구 천호대로 3 (신설동)
24,머슬아카데미 GYM,https://search.pstatic.net/common/?autoRotate=true&type=w560_sharpen&src=https%3A%2F%2Fldb-phinf.pstatic.net%2F20190417_155%2F1555466656882h4SO8_JPEG%2FQny1Mio8xv_81QSu3BDJCKPI.jpg,4.78,37.58497658546757,127.0434603932133,,"서울특별시 동대문구 약령시로21길 30, 상가동 지하 1호 (청량리동, 현대아파트)"
25,상승짐,https://search.pstatic.net/common/?autoRotate=true&type=w560_sharpen&src=https%3A%2F%2Fldb-phinf.pstatic.net%2F20211011_87%2F1633921904142S04jY_JPEG%2FRIYU0Im7zxZjPmCQsrI-IWgK.jpg,4.78,37.56929054683599,127.06728377494241,,"서울특별시 동대문구 장한로 98, 케이타워 지하1층 (장안동)"
26,머슬랭PT,https://search.pstatic.net/common/?autoRotate=true&type=w560_sharpen&src=https%3A%2F%2Fldb-phinf.pstatic.net%2F20211102_39%2F1635842129533X8riL_JPEG%2F6_5otQqK8qgOhOUMOvw7K6HX.jpg,,37.57180440038132,127.05421148848914,,"서울특별시 동대문구 전농로 77, 3층 (답십리동)"
27,직선 퍼스널트레이닝(장안점),https://search.pstatic.net/common/?autoRotate=true&type=w560_sharpen&src=https%3A%2F%2Fldb-phinf.pstatic.net%2F20210308_175%2F1615172249449ctc3c_PNG%2FOEipc5MT9rmvbXOVV6SFzORE.png,5,37.57201146430215,127.06807295247633,,"서울특별시 동대문구 장한로 129, 지층 (장안동)"
28,제프짐,https://search.pstatic.net/common/?autoRotate=true&type=w560_sharpen&src=https%3A%2F%2Fldb-phinf.pstatic.net%2F20210805_201%2F1628123997736XIX5I_JPEG%2F2m5OHfIMD5lBQmfqRgvD35-Q.jpg,5,37.58211917187196,127.04419968161378,,"서울특별시 동대문구 왕산로 225, 미주상가 A동 2층 6-2호 (청량리동)"
29,하나더 짐,https://search.pstatic.net/common/?autoRotate=true&type=w560_sharpen&src=https%3A%2F%2Fldb-phinf.pstatic.net%2F20210628_33%2F1624862167689nJOKB_JPEG%2FO4RVrhWwNZ3GBotyPJR6tuq-.jpeg.jpg,4.73,37.57664212040417,127.05757584481069,,"서울특별시 동대문구 사가정로 148, 138동 지하1층 112~116 118 119호 (전농동, 전농 SK아파트)"
30,빛나짐,https://search.pstatic.net/common/?autoRotate=true&type=w560_sharpen&src=https%3A%2F%2Fldb-phinf.pstatic.net%2F20210930_145%2F16329780843534Js96_JPEG%2FdFZKn2GngCspQqOeMoPc1vmN.jpg,,37.565941197809586,127.06404058512896,,"서울특별시 동대문구 천호대로83길 92, 2층 (장안동)"
31,크로스핏 온앤온,https://search.pstatic.net/common/?autoRotate=true&type=w560_sharpen&src=https%3A%2F%2Fldb-phinf.pstatic.net%2F20201026_213%2F1603721698718zIsbt_JPEG%2FDl2tl6Cp6xwclA4qQ2olGhMj.jpg,4.91,37.563352106701444,127.06403074698588,,"서울특별시 동대문구 천호대로85길 32, 동양빌딩 지하1층 (장안동)"
32,FITNESS K,https://search.pstatic.net/common/?autoRotate=true&type=w560_sharpen&src=https%3A%2F%2Fldb-phinf.pstatic.net%2F20170510_246%2F1494384570743b9VDF_JPEG%2F186460517950628_0.jpeg,,37.57757104007081,127.05699869607075,,"서울특별시 동대문구 사가정로 136, 3층 (전농동)"
33,베이스오브바디,https://search.pstatic.net/common/?autoRotate=true&type=w560_sharpen&src=https%3A%2F%2Fldb-phinf.pstatic.net%2F20220713_167%2F1657677748634CNUOg_JPEG%2FKakaoTalk_20220712_085622371_02.jpg,5,37.56801129558603,127.05454310138566,02-6952-5995,"서울특별시 동대문구 전농로 36, 답십리포레스트스퀘어 2층 203호 (답십리동)"
34,팀현gym,https://search.pstatic.net/common/?autoRotate=true&type=w560_sharpen&src=https%3A%2F%2Fldb-phinf.pstatic.net%2F20210122_294%2F1611294456237WASJl_JPEG%2FKakaoTalk_Image_2021-01-19-15-49-23_002.jpeg,5,37.574349077738674,127.02123044261593,,"서울특별시 동대문구 천호대로2길 15, 2층 (신설동)"
35,닥터스트렝스,https://search.pstatic.net/common/?autoRotate=true&type=w560_sharpen&src=https%3A%2F%2Fldb-phinf.pstatic.net%2F20220613_153%2F1655091509048EsFaf_JPEG%2FIMG_6161_-_%25BA%25B9%25BB%25E7%25BA%25BB.jpg,5,37.58222504562648,127.02739140619694,,"서울특별시 동대문구 무학로42길 45, 지하1호 (제기동)"
36,101퍼센트짐,https://search.pstatic.net/common/?autoRotate=true&quality=95&type=w750&src=https%3A%2F%2Fldb-phinf.pstatic.net%2F20220311_259%2F1647002213880HofzV_PNG%2F101PE1.,,37.59327357375046,127.04932454450868,,서울특별시 동대문구 경희대로 19-5 (회기동)
37,triofit,https://search.pstatic.net/common/?autoRotate=true&type=w560_sharpen&src=https%3A%2F%2Fldb-phinf.pstatic.net%2F20220609_90%2F16547351218639FuIq_PNG%2FKakaoTalk_20220609_084645229.png,5,37.56941628965907,127.07009133832388,,서울특별시 동대문구 답십리로72길 66 (장안동)
38,빌리프짐 회기점,https://search.pstatic.net/common/?autoRotate=true&type=w560_sharpen&src=https%3A%2F%2Fldb-phinf.pstatic.net%2F20210428_121%2F1619578486611Hi4du_JPEG%2Fp5R2Q9vzLOPiuZ_u5u-YmZUu.jpg,4.86,37.59176060104173,127.06362752880938,02-2217-9059,"서울특별시 동대문구 망우로 123, 4층 1호 (휘경동)"
39,메이크픽스짐,https://search.pstatic.net/common/?autoRotate=true&type=w560_sharpen&src=https%3A%2F%2Fldb-phinf.pstatic.net%2F20210604_263%2F1622799109264JgKYX_JPEG%2F51xeOiDiKB_tsDjiuQxrW9ev.jpg,5,37.59129846601427,127.05275836881567,,"서울특별시 동대문구 경희대로4길 64, 지하1층 (회기동)"
40,제네핏(Genefit),https://search.pstatic.net/common/?autoRotate=true&type=w560_sharpen&src=https%3A%2F%2Fldb-phinf.pstatic.net%2F20220303_43%2F1646316460207JGXG3_JPEG%2F_DSC6373.jpg,5,37.57897550566589,127.04740581195976,02-3394-5528,"서울특별시 동대문구 서울시립대로 94, 4층 (전농동)"
41,브이엠휘트니스 청량리점,,,37.578597950409126,127.04042989637077,02-964-1110,"서울특별시 동대문구 답십리로 9, 6층 (전농동)"
42,소울핏,https://search.pstatic.net/common/?autoRotate=true&type=w560_sharpen&src=https%3A%2F%2Fldb-phinf.pstatic.net%2F20210825_79%2F1629876807952f82qB_JPEG%2F5ZZ2uZoYwKaz9r9ZxvisXRhY.jpg,4.94,37.56381992563914,127.06290488372358,,"서울특별시 동대문구 장한로 25, 9층 (장안동)"
43,"HEY, HONEY, WORKOUT!",https://search.pstatic.net/common/?autoRotate=true&type=w560_sharpen&src=https%3A%2F%2Fldb-phinf.pstatic.net%2F20211007_26%2F16335877699127Y0iO_PNG%2FBJ42_OpINFHSWGABJM97AQeN.png,,37.5626324242728,127.06281872340111,,"서울특별시 동대문구 장한로 14, 지하 2층 (장안동)"
44,회기동헬스학교 경희대학교점,https://search.pstatic.net/common/?autoRotate=true&type=w560_sharpen&src=https%3A%2F%2Fldb-phinf.pstatic.net%2F20220402_221%2F1648887236331Km5Yi_JPEG%2F3.jpg,,37.59264253679867,127.05003198629628,,"서울특별시 동대문구 회기로19길 23, 2층 (회기동, 유경빌딩)"
45,fitpoint gym,https://search.pstatic.net/common/?autoRotate=true&type=w560_sharpen&src=https%3A%2F%2Fldb-phinf.pstatic.net%2F20211217_130%2F1639737418793lDW6L_JPEG%2FKakaoTalk_20211217_193649083.jpg,,37.57247267103342,127.05275223318249,,"서울특별시 동대문구 답십리로 140, 세기프라자 5층 503호 (답십리동)"
46,원오원짐,https://search.pstatic.net/common/?autoRotate=true&type=w560_sharpen&src=https%3A%2F%2Fldb-phinf.pstatic.net%2F20220419_64%2F1650369880744v3Pzf_JPEG%2F%25BF%25F8%25BF%25C0%25BF%25F8%25C1%25FC-%25BF%25F8%25BA%25BB.jpg,,37.567369638163974,127.05861036532198,,"서울특별시 동대문구 한천로11길 16, A빌딩 3층 (답십리동)"
47,조인성퍼스널트레이닝 운동과학센터(회기점),https://search.pstatic.net/common/?autoRotate=true&type=w560_sharpen&src=https%3A%2F%2Fldb-phinf.pstatic.net%2F20220514_45%2F165252180850875APD_PNG%2FLOGO_inst.png,5,37.58963795834923,127.0528686245575,,"서울특별시 동대문구 이문로 22, 2층 (휘경동)"
48,루아짐,https://search.pstatic.net/common/?autoRotate=true&type=w560_sharpen&src=https%3A%2F%2Fldb-phinf.pstatic.net%2F20220613_32%2F165510176884195Hf3_JPEG%2F1655100248803.jpg,,37.57238742069499,127.07196507670092,,"서울특별시 동대문구 답십리로 309, 2층 (장안동)"
49,체크핏,https://search.pstatic.net/common/?autoRotate=true&type=w560_sharpen&src=https%3A%2F%2Fldb-phinf.pstatic.net%2F20211222_98%2F16401797104936VnN4_JPEG%2F1640179561531.jpg,,37.57966181697016,127.06775645300775,,"서울특별시 동대문구 사가정로25길 22-4, 3층 (장안동)"
50,바디랩PT 장안점,https://search.pstatic.net/common/?autoRotate=true&type=w560_sharpen&src=https%3A%2F%2Fldb-phinf.pstatic.net%2F20220518_175%2F1652874101752H8qnl_JPEG%2F20220513_195002.jpg,,37.56353407495895,127.06344493419165,,"서울특별시 동대문구 장한로 26, 2층 (장안동)"
51,나봄PT&필라테스,https://search.pstatic.net/common/?autoRotate=true&type=w560_sharpen&src=https%3A%2F%2Fldb-phinf.pstatic.net%2F20220307_88%2F16466202652205WaUE_JPEG%2F4621B5EC-0B46-4D7E-A773-43702C28624B.jpeg,,37.59228291934786,127.05059138870185,,"서울특별시 동대문구 경희대로4길 18, 지하1층 (회기동)"
52,더밸런스랩,https://search.pstatic.net/common/?autoRotate=true&type=w560_sharpen&src=https%3A%2F%2Fldb-phinf.pstatic.net%2F20220726_16%2F1658807361972qGnF4_JPEG%2FKakaoTalk_20220725_203719577_01.jpg,,37.57754374641873,127.02844548090663,,"서울특별시 동대문구 왕산로16길 9, 3층 301호 (용두동)"
53,옐로우필라테스&PT,https://search.pstatic.net/common/?autoRotate=true&type=w560_sharpen&src=https%3A%2F%2Fldb-phinf.pstatic.net%2F20220417_126%2F1650161999085jHGIp_JPEG%2F20211010_164127.jpg,,37.59631665229643,127.05802208622369,,"서울특별시 동대문구 휘경로 5-1, 4층 (이문동)"
54,바디온도,https://search.pstatic.net/common/?autoRotate=true&type=w560_sharpen&src=https%3A%2F%2Fldb-phinf.pstatic.net%2F20220616_2%2F1655376886631Dh9Om_JPEG%2FKakaoTalk_20220616_195418870.jpg,,37.57427719307113,127.05493674971375,,"서울특별시 동대문구 전농로 104, 2층 (답십리동)"
55,동네 운동장,https://search.pstatic.net/common/?autoRotate=true&type=w560_sharpen&src=https%3A%2F%2Fldb-phinf.pstatic.net%2F20220707_249%2F1657127478159PrPfR_JPEG%2FB1C85A73-12DA-4E71-BBF7-FC0EE6D29FB2.jpeg,,37.592632802227655,127.0549956037499,,"서울특별시 동대문구 이문로 62, 지하1층 (휘경동)"
56,셀리핏,,,37.586118840159536,127.03068809710965,02-6348-1005,"서울특별시 동대문구 제기로 4, 3층 (제기동)"
