id,name,img,grade,lat,lng,phoneNumber,address
0,나우휘트니스,https://search.pstatic.net/common/?autoRotate=true&type=w560_sharpen&src=https%3A%2F%2Fldb-phinf.pstatic.net%2F20211019_299%2F1634632821873UXA4z_JPEG%2FEMjFWVFj-7tJBwgjnSUVoOIz.jpg,,37.550623867021905,127.14140978140927,481-9679,서울특별시 강동구 양재대로 1626 (명일동)
1,스포힐 휘트니스,https://search.pstatic.net/common/?autoRotate=true&type=w560_sharpen&src=https%3A%2F%2Fldb-phinf.pstatic.net%2F20210928_185%2F1632808249560nkFLP_JPEG%2Fe1Fg6nUARNYo0tcjz5IErZYF.jpg,4.78,37.54041920503921,127.1437685360871,02-470-3138,"서울특별시 강동구 명일로 243 (길동, 서울시산림조합빌딩)"
2,선린남여헬스클럽,,,37.528580953812906,127.13296398849043,487-6987,서울특별시 강동구 양재대로 1371 (성내동)
3,탑 헬스클럽,https://search.pstatic.net/common/?autoRotate=true&type=w560_sharpen&src=https%3A%2F%2Fldb-phinf.pstatic.net%2F20150831_150%2F1440997816482cYV5m_JPEG%2F106568517655521_0.jpg,,37.54271020356568,127.13863784059755,473-1119,서울특별시 강동구 양재대로 1535 (천호동)
4,고위드 피트니스,https://search.pstatic.net/common/?autoRotate=true&type=w560_sharpen&src=https%3A%2F%2Fldb-phinf.pstatic.net%2F20220516_114%2F1652679136615f12Fl_PNG%2F%25B0%25ED%25C0%25A7%25B5%25E5-%25B8%25ED%25C0%25CF2.png,,37.55385082764004,127.14101294173803,481-4864,서울특별시 강동구 양재대로 1661 (명일동)
5,피트니스 다움,https://search.pstatic.net/common/?autoRotate=true&type=w560_sharpen&src=https%3A%2F%2Fldb-phinf.pstatic.net%2F20191202_25%2F1575241202329cRqyY_JPEG%2FbAst2JL4ukgPHcDPLpkmVfDD.jpg,,37.537256492360484,127.12382095633151,475-4131,"서울특별시 강동구 천호대로 1034 (성내동, 탑 메디칼센타)"
6,S휘트니스,https://search.pstatic.net/common/?autoRotate=true&type=w560_sharpen&src=https%3A%2F%2Fldb-phinf.pstatic.net%2F20220524_167%2F1653370069987GloGR_JPEG%2F%25C5%25A9%25B1%25E2%25BA%25AF%25C8%25AF%25C0%25CC%25B4%25EB%25C0%25C7b-a001.jpg,4.9,37.53138840685674,127.12749135851918,489-5566,"서울특별시 강동구 풍성로45길 18 (성내동, 중앙아파트)"
7,MY GYM,https://search.pstatic.net/common/?autoRotate=true&type=w560_sharpen&src=https%3A%2F%2Fldb-phinf.pstatic.net%2F20220325_94%2F1648193069922weDQz_JPEG%2F20220130_144726.jpg,4.67,37.55459538858321,127.15119371414359,428-0061,"서울특별시 강동구 고덕로 256 (명일동, 명성프라자)"
8,썸바디 휘트니스,https://search.pstatic.net/common/?autoRotate=true&type=w560_sharpen&src=https%3A%2F%2Fldb-phinf.pstatic.net%2F20200702_28%2F1593660167870x5HId_JPEG%2FKakaoTalk_20200702_122205459.jpg,4.87,37.54389502493582,127.13969865681618,482-0997,"서울특별시 강동구 양재대로 1550 (길동, 은호빌딩)"
9,와이키키휘트니스,https://search.pstatic.net/common/?autoRotate=true&type=w560_sharpen&src=https%3A%2F%2Fldb-phinf.pstatic.net%2F20160313_100%2F1457863712948g3sEX_JPEG%2F176263593852679_0.jpeg,,37.53529977213723,127.13655605346617,02-472-7677,서울특별시 강동구 양재대로 1450 (길동)
10,비나이더 둔촌동역점,https://search.pstatic.net/common/?autoRotate=true&type=w560_sharpen&src=https%3A%2F%2Fldb-phinf.pstatic.net%2F20220713_177%2F1657676288424IUFTC_PNG%2F%25C8%25AD%25B6%25FB_%25B1%25E8%25C7%25F6%25BC%25BA_v4.png,,37.5269261364742,127.13182474628755,02-6262-0820,"서울특별시 강동구 양재대로89길 16 (성내동, 파크프라자)"
11,제스트짐,https://search.pstatic.net/common/?autoRotate=true&type=w560_sharpen&src=https%3A%2F%2Fldb-phinf.pstatic.net%2F20210902_66%2F1630582252957yWaqy_JPEG%2FkACRGDmPNamEN-0XG4MEd71a.jpg,4.71,37.53155410491689,127.12265940631366,02-482-8820,서울특별시 강동구 풍성로38길 9 (성내동)
12,삼성 피트니스 그레이,https://search.pstatic.net/common/?autoRotate=true&type=w560_sharpen&src=https%3A%2F%2Fldb-phinf.pstatic.net%2F20220515_282%2F165257975586567TT0_JPEG%2F%25B0%25F1%25C7%25C11.jpg,,37.534954814126515,127.14064827651846,02-488-8965,서울특별시 강동구 천호대로 1193 (길동)
13,타워토탈 휘트니스,https://search.pstatic.net/common/?autoRotate=true&type=w560_sharpen&src=https%3A%2F%2Fldb-phinf.pstatic.net%2F20180113_8%2F1515842306469yCRJm_JPEG%2FaX5okohKMuFnqjWqmT0Khncj.JPG.jpg,4.17,37.55324222496603,127.15188806515988,02)442-2130,"서울특별시 강동구 동남로73길 26 (명일동, 명일씨티코아B1, 53호)"
14,커브스 길동클럽,https://search.pstatic.net/common/?autoRotate=true&type=w560_sharpen&src=https%3A%2F%2Fldb-phinf.pstatic.net%2F20210303_237%2F1614749325816nFBmU_PNG%2FqL3nKNE3GDTIfFJZCw6JBZ27.png,4.2,37.53822407631292,127.13757491656179,02)488-1973,"서울특별시 강동구 양재대로 1484-1, 4층 (길동, 서원빌딩)"
15,커브스 둔촌클럽,https://search.pstatic.net/common/?autoRotate=true&type=w560_sharpen&src=https%3A%2F%2Fldb-phinf.pstatic.net%2F20210716_207%2F1626424362842UThqA_PNG%2FnDJ8E_VjB-uWiXQpX0RpR7EM.png,,37.52562780238188,127.13200064242594,,"서울특별시 강동구 양재대로 1335, 동부빌딩  201호 (성내동)"
16,카인드 짐,https://search.pstatic.net/common/?autoRotate=true&type=w560_sharpen&src=https%3A%2F%2Fldb-phinf.pstatic.net%2F20211118_100%2F1637225266000BtyTn_JPEG%2F3.%25C5%25E4%25C5%25A9%25C1%25B801.jpg,4.78,37.56771320359255,127.17250653377633,426-9682,"서울특별시 강동구 아리수로 427, 중앙프라자 10층 (강일동)"
17,업투 선사역점,https://search.pstatic.net/common/?autoRotate=true&type=w560_sharpen&src=https%3A%2F%2Fldb-phinf.pstatic.net%2F20220526_26%2F1653531811573MvaEd_JPEG%2F2345t6yujk.jpg,,37.555000462189845,127.13461596431546,02-3426-8802,서울특별시 강동구 고덕로 109 (암사동)
18,M PT GYM,https://search.pstatic.net/common/?autoRotate=true&type=w560_sharpen&src=https%3A%2F%2Fldb-phinf.pstatic.net%2F20150901_70%2F1441073606594cOb5s_JPEG%2F33920331_0.jpeg,,37.5447924907306,127.14135533369577,02-6229-0071,서울특별시 강동구 양재대로128길 25 (명일동)
19,세종텔레콤 피트니스 센터,https://search.pstatic.net/common/?autoRotate=true&type=w560_sharpen&src=https%3A%2F%2Fldb-phinf.pstatic.net%2F20210420_201%2F1618897536504J9I4I_JPEG%2FoEmzU-neOLfKFKe789ELuqGQ.jpg,,37.55354995660469,127.17200754963753,3415-4928,"서울특별시 강동구 상일로10길 36 (상일동, 세종텔레콤지식산업센터)"
20,노블레스클럽,https://search.pstatic.net/common/?autoRotate=true&type=w560_sharpen&src=https%3A%2F%2Fldb-phinf.pstatic.net%2F20151201_288%2F1448980804370k3dxt_JPEG%2F167151637023349_0.jpeg,,37.53448205066562,127.14175317255373,,서울특별시 강동구 천호대로 1200 (둔촌동)
21,Fitness Classic,https://search.pstatic.net/common/?autoRotate=true&type=w560_sharpen&src=https%3A%2F%2Fldb-phinf.pstatic.net%2F20210811_141%2F1628640439308a5tep_JPEG%2FftvpUYT1XNz-vIjCcZPESNgf.JPG.jpg,4.91,37.537719861429785,127.14629008546392,476-6988,"서울특별시 강동구 천호대로 1239, 상가동 지층 101호 (길동)"
22,New body PT gym,https://search.pstatic.net/common/?autoRotate=true&type=w560_sharpen&src=https%3A%2F%2Fldb-phinf.pstatic.net%2F20150813_121%2F1439450069156ewMmB_JPEG%2F166761587071862_0.jpeg,,37.53000479447013,127.1286677289024,070-5025-4810,"서울특별시 강동구 성안로 71, 지층 (성내동)"
23,커브스 천호클럽,https://search.pstatic.net/common/?autoRotate=true&type=w560_sharpen&src=https%3A%2F%2Fldb-phinf.pstatic.net%2F20200501_56%2F1588335673031Rd4my_JPEG%2F9hVqyNJBvRAMmjvyqmmDV8_T.JPG.jpg,4.86,37.53935541643694,127.12038295169936,02-470-0030,"서울특별시 강동구 천호대로 997, 502호 (천호동, 신라빌딩)"
24,올댓컨디셔닝,https://search.pstatic.net/common/?autoRotate=true&type=w560_sharpen&src=https%3A%2F%2Fldb-phinf.pstatic.net%2F20160629_119%2F14671844612930MytH_JPEG%2F176579564440479_0.jpeg,,37.524165061435674,127.13101673842958,,서울특별시 강동구 양재대로89가길 56 (성내동)
25,스타트라인,https://search.pstatic.net/common/?autoRotate=true&type=w560_sharpen&src=https%3A%2F%2Fldb-phinf.pstatic.net%2F20170315_189%2F1489541489221bDJiy_JPEG%2F186265506148936_0.jpeg,4.98,37.5241102708572,127.12811402304132,02-6448-1121,"서울특별시 강동구 양재대로81길 64 (성내동, 코스카 빌딩)"
26,위너바디,https://search.pstatic.net/common/?autoRotate=true&type=w560_sharpen&src=https%3A%2F%2Fldb-phinf.pstatic.net%2F20220704_45%2F1656929357481jGh26_JPEG%2FKakaoTalk_20220704_183716161.jpg,4.95,37.54061060424473,127.12203222705229,,"서울특별시 강동구 올림픽로 664, 2층 (천호동, 대우 한강 베네시티)"
27,KCA트레이닝센터,,,37.529259129800884,127.13149653239775,471-5543,서울특별시 강동구 풍성로 204 (성내동)
28,차선생 body factory,https://search.pstatic.net/common/?autoRotate=true&type=w560_sharpen&src=https%3A%2F%2Fldb-phinf.pstatic.net%2F20170622_65%2F1498095354790TVWom_JPEG%2F186572506574171_0.jpeg,4.96,37.550033696241336,127.12298877790133,,서울특별시 강동구 상암로4가길 7 (암사동)
29,스포애니 길동역점,https://search.pstatic.net/common/?autoRotate=true&type=w560_sharpen&src=https%3A%2F%2Fldb-phinf.pstatic.net%2F20170628_69%2F1498625853478zMbVg_JPEG%2F186576564871227_0.jpeg,4.26,37.53936386422798,127.13739287289519,02-486-9618,"서울특별시 강동구 양재대로 1495 (길동, 만종빌딩)"
30,펄스짐,https://search.pstatic.net/common/?autoRotate=true&type=w560_sharpen&src=https%3A%2F%2Fldb-phinf.pstatic.net%2F20191118_147%2F1574077536890OlLyC_JPEG%2F-tuCtY-c05suR1VHEprK5BZ8.JPG.jpg,4.95,37.5346214440029,127.13228809102365,6140-5844,서울특별시 강동구 천호대로 1116 (성내동)
31,컨베이지,https://search.pstatic.net/common/?autoRotate=true&type=w560_sharpen&src=https%3A%2F%2Fldb-phinf.pstatic.net%2F20180711_81%2F15312776983263x50S_JPEG%2F6ZMeT20Zu1JNLx9OkGeqytQh.jpg,,37.53554458582253,127.1439658523362,,"서울특별시 강동구 천호대로 1224, 현대크리닉빌딩 201호 (둔촌동)"
32,스포애니 천호초교점,https://search.pstatic.net/common/?autoRotate=true&type=w560_sharpen&src=https%3A%2F%2Fldb-phinf.pstatic.net%2F20190607_177%2F1559893043277ckhcW_JPEG%2FdH_ugm90IwsTq6lNoyH2djEy.jpg,3.83,37.54668276653123,127.13203307764684,02-484-9618,"서울특별시 강동구 구천면로 304, 일주빌딩 (천호동)"
33,바디온,https://search.pstatic.net/common/?autoRotate=true&type=w560_sharpen&src=https%3A%2F%2Fldb-phinf.pstatic.net%2F20211229_128%2F1640754668635Wg7XP_JPEG%2FScreenshot_20200708-231418_Gallery.jpg,,37.53388963804381,127.14164786466978,,서울특별시 강동구 명일로 167 (둔촌동)
34,UC PT&YOGA,https://search.pstatic.net/common/?autoRotate=true&type=w560_sharpen&src=https%3A%2F%2Fldb-phinf.pstatic.net%2F20220703_10%2F1656829783568g4ixI_JPEG%2FKakaoTalk_20220703_152925275.jpg,,37.53705720375484,127.14459902906597,,"서울특별시 강동구 명일로 200-33, 3층 (길동)"
35,TEAMK 퍼스널트레이닝,https://search.pstatic.net/common/?autoRotate=true&type=w560_sharpen&src=https%3A%2F%2Fldb-phinf.pstatic.net%2F20200313_70%2F1584076796585cKodO_JPEG%2FteOmfoWJ-WWYsjR5FhtsKM6T.jpg,,37.55416912488712,127.15163854070813,,"서울특별시 강동구 동남로75길 29, 세종프라자 (명일동)"
36,로드스타 휘트니스,https://search.pstatic.net/common/?autoRotate=true&type=w560_sharpen&src=https%3A%2F%2Fldb-phinf.pstatic.net%2F20201106_239%2F1604624470819iEK9R_JPEG%2FygoaAsU0dR4ynvsbWaQkA588.jpg,4.86,37.54841600398506,127.17004464876167,,"서울특별시 강동구 상일로 15, 2층 (상일동)"
37,PT1987,,,37.532579784814864,127.11950060887848,02-477-1987,"서울특별시 강동구 풍성로 92, 한스빌딩 -1호 (성내동)"
38,콤마짐,https://search.pstatic.net/common/?autoRotate=true&type=w560_sharpen&src=https%3A%2F%2Fldb-phinf.pstatic.net%2F20220704_72%2F1656908316742TP2we_JPEG%2FKakaoTalk_20220626_152310939.jpg,4.89,37.55398615253714,127.15174900410709,02-441-7707,"서울특별시 강동구 동남로75길 27, 고덕역갑을명가시티 오피스텔 -1층 (명일동)"
39,테라피티 천호,https://search.pstatic.net/common/?autoRotate=true&type=w560_sharpen&src=https%3A%2F%2Fldb-phinf.pstatic.net%2F20220513_248%2F1652434580933dCRTo_JPEG%2FKakaoTalk_20220513_183356194_02.jpg,5,37.5359153111875,127.12253466590622,02-488-9682,"서울특별시 강동구 천호옛길 82, 토바빌딩 -1층 (성내동)"
40,J Class Gym,https://search.pstatic.net/common/?autoRotate=true&type=w560_sharpen&src=https%3A%2F%2Fldb-phinf.pstatic.net%2F20210608_51%2F1623109446402QO1E3_JPEG%2F_uHBcDjge-3wN3BJArKnu41N.jpeg.jpg,,37.551802108102045,127.12914219955901,,"서울특별시 강동구 암사길 25, 2층 (암사동)"
41,더 스탠다드 짐,https://search.pstatic.net/common/?autoRotate=true&type=w560_sharpen&src=https%3A%2F%2Fldb-phinf.pstatic.net%2F20201007_13%2F1602028008241zRpLd_JPEG%2FB6ikjFEVZqo4I7BqaPeTd5Ar.jpeg.jpg,,37.56072053935384,127.15345379978604,02-9282-0080,"서울특별시 강동구 동남로81길 8, 고덕크리닉 5층 (고덕동)"
42,드림핏퍼스널트레이닝센터,https://search.pstatic.net/common/?autoRotate=true&type=w560_sharpen&src=https%3A%2F%2Fldb-phinf.pstatic.net%2F20220227_118%2F1645927876987BNc8n_PNG%2F1644840484772-0.png,,37.53566834636466,127.14226764843883,,"서울특별시 강동구 명일로 189, 초우빌딩 6층 (길동)"
43,업투 상일동역점,https://search.pstatic.net/common/?autoRotate=true&type=w560_sharpen&src=https%3A%2F%2Fldb-phinf.pstatic.net%2F20220609_169%2F1654731295296a8AsU_PNG%2F%25C1%25A6%25B8%25F1%25C0%25BB-%25C0%25D4%25B7%25C2%25C7%25D8%25C1%25D6%25BC%25BC%25BF%25E4_-001_%252857%2529.png,4.91,37.557249813061745,127.16608450930906,02-481-1101,"서울특별시 강동구 고덕로 391, 종점빌딩 -2층 (고덕동)"
44,엘리트짐 길동점,https://search.pstatic.net/common/?autoRotate=true&type=w560_sharpen&src=https%3A%2F%2Fldb-phinf.pstatic.net%2F20220704_124%2F1656915539250Ypmdq_JPEG%2F7%25BF%25F9_%25C7%25C1%25B7%25CE%25B8%25F0%25BC%25C7.jpg,4.9,37.53594177577101,127.13610653632284,02-477-8250,"서울특별시 강동구 양재대로 1457, 부에노빌딩 -1층 (길동)"
45,해부학적 운동 성내5호점,https://search.pstatic.net/common/?autoRotate=true&type=w560_sharpen&src=https%3A%2F%2Fldb-phinf.pstatic.net%2F20210405_72%2F16175535833831IlBr_JPEG%2FiSLRrj46eQAcOGout7VncFUb.jpeg.jpg,,37.52553253764516,127.12650100885342,,"서울특별시 강동구 성안로 17, 정안빌딩 5층 (성내동)"
46,놀힘,,,37.52450526274175,127.1289129128438,,"서울특별시 강동구 강동대로53길 35, 협성빌딩 2층 (성내동)"
47,JYGym,https://search.pstatic.net/common/?autoRotate=true&type=w560_sharpen&src=https%3A%2F%2Fldb-phinf.pstatic.net%2F20210628_33%2F1624850760541DLroo_JPEG%2FiIRMK9TBK_3e_i_nqnxD_F9Z.jpg,,37.550083563321465,127.12339654187507,,"서울특별시 강동구 상암로4길 10, 엘베강 2층 201호 (암사동)"
48,VIP짐,https://search.pstatic.net/common/?autoRotate=true&type=w560_sharpen&src=https%3A%2F%2Fldb-phinf.pstatic.net%2F20220308_139%2F1646716695776hkFxO_JPEG%2Fimage.jpg,,37.546742613537766,127.16846968173641,,서울특별시 강동구 천호대로 1469-1 (상일동)
49,피트니스온 둔촌점,https://search.pstatic.net/common/?autoRotate=true&type=w560_sharpen&src=https%3A%2F%2Fldb-phinf.pstatic.net%2F20220520_115%2F165303504274872l26_JPEG%2FKakaoTalk_20220419_124640813_11.jpg,4.88,37.533961240471434,127.14033846452885,,"서울특별시 강동구 천호대로 1186, 원경빌딩 (둔촌동)"
50,리빌드 바디,https://search.pstatic.net/common/?autoRotate=true&type=w560_sharpen&src=https%3A%2F%2Fldb-phinf.pstatic.net%2F20211207_36%2F1638860840681ctINA_JPEG%2FKakaoTalk_20211207_160101047_03.jpg,,37.55894942369064,127.14419246197698,,"서울특별시 강동구 아리수로50길 50 (고덕동, 래미안힐스테이트고덕)"
51,피니쉬 짐,https://search.pstatic.net/common/?autoRotate=true&type=w560_sharpen&src=https%3A%2F%2Fldb-phinf.pstatic.net%2F20170329_216%2F1490797557773EijgA_JPEG%2F186279635577656_0.jpeg,,37.5341602950363,127.13363676550392,,"서울특별시 강동구 천호대로 1128, 웰빙메디컬빌딩 (성내동)"
52,에이블짐 길동역점,https://search.pstatic.net/common/?autoRotate=true&type=w560_sharpen&src=https%3A%2F%2Fldb-phinf.pstatic.net%2F20220714_61%2F1657767768377xsSge_JPEG%2FKakaoTalk_20220714_111623653.jpg,4.98,37.53728262682475,127.13651886843687,024770718,서울특별시 강동구 양재대로 1471 (길동)
53,운동하는날 암사점,https://search.pstatic.net/common/?autoRotate=true&type=w560_sharpen&src=https%3A%2F%2Fldb-phinf.pstatic.net%2F20220707_244%2F1657178395166b7hSd_PNG%2F%25C7%25C1%25B7%25CE%25B8%25F0%25BC%25C71.,,37.55219340834688,127.12508477099936,,"서울특별시 강동구 올림픽로 795, 서울유치원 (암사동)"
54,선물같은시간,https://search.pstatic.net/common/?autoRotate=true&type=w560_sharpen&src=https%3A%2F%2Fldb-phinf.pstatic.net%2F20220317_146%2F1647526107576QGhQq_JPEG%2F%25BC%25B1%25B9%25B0%25B0%25B0%25C0%25BA%25BD%25C3%25B0%25A3_%25287%2529.jpg,,37.54911465625303,127.14579698578422,,"서울특별시 강동구 구천면로 456, 한성빌딩 3층 (명일동)"
55,미미피티,https://search.pstatic.net/common/?autoRotate=true&type=w560_sharpen&src=https%3A%2F%2Fldb-phinf.pstatic.net%2F20220630_183%2F16565636261004cCCA_PNG%2F%25C7%25C1%25B7%25CE%25C7%25CA_%25B9%25DA%25B1%25A4%25B9%25CE.png,,37.53667445035517,127.13280702695552,02-474-8818,"서울특별시 강동구 진황도로 81, 강동투웨니퍼스트 B1층 (길동)"
56,김현진153GYM,https://search.pstatic.net/common/?autoRotate=true&type=w560_sharpen&src=https%3A%2F%2Fldb-phinf.pstatic.net%2F20220722_200%2F1658484560090ytVvq_JPEG%2FKakaoTalk_20220722_122056559.jpg,,37.54129347808925,127.13793615108287,,"서울특별시 강동구 양재대로 1517, 남해빌딩 (천호동)"
57,밀리언짐,https://search.pstatic.net/common/?autoRotate=true&type=w560_sharpen&src=https%3A%2F%2Fldb-phinf.pstatic.net%2F20211206_213%2F1638762195721S7PjS_PNG%2Fdknfkandfkls.png,5,37.55082074314983,127.12398467473623,,"서울특별시 강동구 상암로3길 8, 암사동정웅빌딩 (암사동)"
58,SOMA FIT-IN,https://search.pstatic.net/common/?autoRotate=true&type=w560_sharpen&src=https%3A%2F%2Fldb-phinf.pstatic.net%2F20220429_275%2F1651212958097p5IrA_JPEG%2FKakaoTalk_Photo_2022-04-29-15-12-56_010.jpeg,,37.52811870900122,127.12462245870034,,"서울특별시 강동구 성내로 65, 지하1층 (성내동, 집앤사베니아파트)"
59,다윗헬스클럽,https://search.pstatic.net/common/?autoRotate=true&type=w560_sharpen&src=https%3A%2F%2Fldb-phinf.pstatic.net%2F20220506_224%2F1651812126899FXYQr_GIF%2Fsale.g,,37.550575421535676,127.13839607178394,,"서울특별시 강동구 구천면로 384, 동곡빌딩 (천호동)"
60,모션짐,https://search.pstatic.net/common/?autoRotate=true&type=w560_sharpen&src=https%3A%2F%2Fldb-phinf.pstatic.net%2F20220509_233%2F1652084460637dBoeJ_JPEG%2F1649851009564_%25281%2529.jpg,,37.53701977784869,127.13292536110865,,"서울특별시 강동구 천호대로173길 39, B1층 (길동, 다성 이즈빌)"
61,크로스핏 쓰리박스,https://search.pstatic.net/common/?autoRotate=true&type=w560_sharpen&src=https%3A%2F%2Fldb-phinf.pstatic.net%2F20220523_83%2F1653257781270YXDga_JPEG%2FEC3728EA-A5F6-4DC9-8060-F45BA79BC86F.jpeg,,37.55291436603994,127.12594038978706,,"서울특별시 강동구 올림픽로 806, 지하1층 (암사동, 까사팔공육)"
62,라이프체인지 PT,https://search.pstatic.net/common/?autoRotate=true&type=w560_sharpen&src=https%3A%2F%2Fldb-phinf.pstatic.net%2F20190513_199%2F15577515573844TjNF_JPEG%2FwB66uFUXjBoZo_gyw-8ENqNt.jpg,4.96,37.536238190250714,127.13684799561871,,"서울특별시 강동구 양재대로 1462, 남양빌딩 2층 (길동)"
63,올바른 PT,https://search.pstatic.net/common/?autoRotate=true&type=w560_sharpen&src=https%3A%2F%2Fldb-phinf.pstatic.net%2F20220529_290%2F16537546388681zrV5_JPEG%2FKakaoTalk_20220528_224836071.jpg,,37.54985706833954,127.12330744876904,,"서울특별시 강동구 상암로4길 16, 동경빌딩 5층 (암사동)"
64,피트니즈 천호점,https://search.pstatic.net/common/?autoRotate=true&type=w560_sharpen&src=https%3A%2F%2Fldb-phinf.pstatic.net%2F20220707_126%2F1657180765521L0iMR_JPEG%2F00.jpg,,37.54843226891301,127.13318455593361,02-478-8820,"서울특별시 강동구 구천면로 328, 인성빌딩 3층 301호 (천호동)"
65,휘트니스피플 우먼 길동점,https://search.pstatic.net/common/?autoRotate=true&type=w560_sharpen&src=https%3A%2F%2Fldb-phinf.pstatic.net%2F20220711_120%2F16575066868074eDKR_JPEG%2F%25C8%25D6%25C7%25C7_%25BD%25E6%25B3%25D7%25C0%25CF.jpg,,37.538546103277056,127.13769622390905,02-477-3912,"서울특별시 강동구 양재대로 1488, 길동 5층 (길동)"
