id,name,img,grade,lat,lng,phoneNumber,address
0,헤라클레스,https://search.pstatic.net/common/?autoRotate=true&type=w560_sharpen&src=https%3A%2F%2Fldb-phinf.pstatic.net%2F20170503_102%2F1493784816104df43w_JPEG%2F186453534355877_3.jpeg,,37.50592217480696,126.9529415803408,824-8688,서울특별시 동작구 흑석로6가길 21 (흑석동)
1,명문헬스클럽,https://search.pstatic.net/common/?autoRotate=true&type=w560_sharpen&src=https%3A%2F%2Fldb-phinf.pstatic.net%2F20210330_280%2F1617102125481mq69x_JPEG%2Fadw-UI50Azfq--7I_erLpuKN.jpeg.jpg,,37.49352952433854,126.95454113182934,814-0579,"서울특별시 동작구 상도로 399, 202호 (상도동, 삼호상가)"
2,에브리데이짐,https://search.pstatic.net/common/?autoRotate=true&type=w560_sharpen&src=https%3A%2F%2Fldb-phinf.pstatic.net%2F20220222_140%2F1645507360033hv2OV_JPEG%2FKakaoTalk_20220118_221145518.jpg,4.95,37.50473406581471,126.93544611208824,817-6400,서울특별시 동작구 상도로 179 (상도동)
3,국제 헬스,,,37.51180249398128,126.93205458459842,02-814-4155,서울특별시 동작구 등용로4길 148 (노량진동)
4,엔짐,https://search.pstatic.net/common/?autoRotate=true&type=w560_sharpen&src=https%3A%2F%2Fldb-phinf.pstatic.net%2F20210824_77%2F1629779299344JWoho_JPEG%2FMAwDBQoGnx9ZFoSX7GD03UzZ.JPG.jpg,4.78,37.49714164137286,126.94172727776962,817-8990,"서울특별시 동작구 양녕로26길 27, 5층 (상도동, 삼익아파트)"
5,마크짐 휘트니스,https://search.pstatic.net/common/?autoRotate=true&type=w560_sharpen&src=https%3A%2F%2Fldb-phinf.pstatic.net%2F20150831_38%2F1441001649287zzR6R_JPEG%2F146075617047046_0.jpeg,4.22,37.50759373772685,126.9599368304822,,"서울특별시 동작구 서달로 166, 우리은행흑석동지점 5층 (흑석동)"
6,피렉스휘트니스센터,https://search.pstatic.net/common/?autoRotate=true&type=w560_sharpen&src=https%3A%2F%2Fldb-phinf.pstatic.net%2F20200304_105%2F1583303611701jMFjN_JPEG%2Fbd2QJSBXmpIaT3ijN_AZ_8NS.jpg,4.39,37.49992717957283,126.92847294485144,822-4999,"서울특별시 동작구 상도로 96, 2층 (상도동)"
7,프레토 휘트니스,https://search.pstatic.net/common/?autoRotate=true&type=w560_sharpen&src=https%3A%2F%2Fldb-phinf.pstatic.net%2F20200206_79%2F1580995508676Xlfei_JPEG%2F-3_2hHo9rEeo_p47b2UJbEvo.jpg,4.27,37.49946514581124,126.92501049731642,815-3888,"서울특별시 동작구 보라매로 113, 코스모빌딩 5층 (대방동)"
8,이루어짐,https://search.pstatic.net/common/?autoRotate=true&type=w560_sharpen&src=https%3A%2F%2Fldb-phinf.pstatic.net%2F20171212_81%2F1513063683395M6C02_PNG%2F56V0cztXuKICFuxMRvh84nGZ.png,,37.51170466759402,126.93614754359974,825-8555,서울특별시 동작구 장승배기로27길 18 (노량진동)
9,바디 디자인샵,https://search.pstatic.net/common/?autoRotate=true&type=w560_sharpen&src=https%3A%2F%2Fldb-phinf.pstatic.net%2F20160607_5%2F1465272130627p28t6_JPEG%2F176557503445031_0.jpeg,,37.49879205865722,126.92637000469637,811-7727,서울특별시 동작구 국사봉1길 12 (상도동)
10,커브스 상도클럽,https://search.pstatic.net/common/?autoRotate=true&type=w560_sharpen&src=https%3A%2F%2Fldb-phinf.pstatic.net%2F20210326_275%2F1616725081197VlEj7_JPEG%2F7tK_klskyd_pEl_B-jDvGCNT.jpeg.jpg,4.63,37.4970051989122,126.94972844537992,02-815-3040,"서울특별시 동작구 상도로 352, 3층 (상도동)"
11,해가든짐,https://search.pstatic.net/common/?autoRotate=true&type=w560_sharpen&src=https%3A%2F%2Fldb-phinf.pstatic.net%2F20201004_111%2F1601755716558HoVUX_JPEG%2FN0kD6wy-_GlEJQu-qLuHFQwn.jpeg.jpg,4.67,37.50666622764779,126.95929819629448,,"서울특별시 동작구 서달로 150, 지1층 (흑석동, 이랜드해가든)"
12,코드짐,https://search.pstatic.net/common/?autoRotate=true&type=w560_sharpen&src=https%3A%2F%2Fldb-phinf.pstatic.net%2F20220308_17%2F1646747465181BcX3Q_JPEG%2F2022_0307_00530000.jpg,4.96,37.51031438576867,126.94289348252752,,"서울특별시 동작구 만양로8길 63, 2~4층 (노량진동)"
13,짐퍼스트 동작점,https://search.pstatic.net/common/?autoRotate=true&type=w560_sharpen&src=https%3A%2F%2Fldb-phinf.pstatic.net%2F20220722_162%2F1658460280200Iuwkq_PNG%2F%25B1%25D7%25B7%25EC%25C7%25C7%25C6%25BC.,3.95,37.49226689543528,126.90871700898708,,"서울특별시 동작구 여의대방로 22, 205호 (신대방동, 우성상가)"
14,엠에이치 토탈 휘트니스 신대방,https://search.pstatic.net/common/?autoRotate=true&type=w560_sharpen&src=https%3A%2F%2Fldb-phinf.pstatic.net%2F20150908_211%2F1441646633786i3sg7_JPEG%2FSUBMIT_1441645923372_36993782.jpg,4.67,37.48993264238515,126.90497192638516,02-848-9696,"서울특별시 동작구 시흥대로 654, 4층 (신대방동)"
15,러너 피트니스,https://search.pstatic.net/common/?autoRotate=true&type=w560_sharpen&src=https%3A%2F%2Fldb-phinf.pstatic.net%2F20220422_27%2F1650631502948d8gAm_JPEG%2F%25BB%25F3%25B5%25B5%25B5%25BF%25C7%25EF%25BD%25BA%25C0%25E52.jpg,,37.49682528303975,126.94068974650966,02-822-1602,"서울특별시 동작구 양녕로 170 (상도동, 상도동 롯데캐슬비엔)"
16,리턴투 필라테스,https://search.pstatic.net/common/?autoRotate=true&type=w560_sharpen&src=https%3A%2F%2Fldb-phinf.pstatic.net%2F20160328_275%2F14591254204113npfP_JPEG%2F176278496679685_0.jpeg,4.58,37.499905874408505,126.9266435715913,02-845-8945,"서울특별시 동작구 상도로 81, B201호 (대방동, 대방동크리닉센타)"
17,크로스핏 포스,https://search.pstatic.net/common/?autoRotate=true&type=w560_sharpen&src=https%3A%2F%2Fldb-phinf.pstatic.net%2F20160524_199%2F1464094968842vTB7g_JPEG%2F176474623268722_1.jpeg,,37.51189120372122,126.92384329331372,821-9190,"서울특별시 동작구 여의대방로54길 14, 지1층 (대방동, 경준빌딩)"
18,휘트니스 452,https://search.pstatic.net/common/?autoRotate=true&type=w560_sharpen&src=https%3A%2F%2Fldb-phinf.pstatic.net%2F20200104_90%2F1578138639823ejKx5_JPEG%2FwNdgPKEUgLgqcQvoiZq9ppYc.jpg,4.5,37.50659834449792,126.96358755940769,02-825-3351,"서울특별시 동작구 흑석한강로 2, 302호 (흑석동, 흑석한강센트레빌)"
19,더블유짐 상도점,https://search.pstatic.net/common/?autoRotate=true&type=w560_sharpen&src=https%3A%2F%2Fldb-phinf.pstatic.net%2F20220110_232%2F1641824069634HTI67_JPEG%2FScreenshot_20220110-231103_Gallery.jpg,,37.50036177357281,126.94763147583812,02-813-0010,"서울특별시 동작구 상도로 311, 2층 (상도1동)"
20,원투원휘트니스,https://search.pstatic.net/common/?autoRotate=true&type=w560_sharpen&src=https%3A%2F%2Fldb-phinf.pstatic.net%2F20170902_149%2F1504326017222LciLn_PNG%2FrfS3CJeBDUGJkZSEluZAGXtz.png,4.53,37.5121929132242,126.93849821031988,823-0121,"서울특별시 동작구 장승배기로28길 20, 지1층 (노량진동)"
21,바디킹PT샵,https://search.pstatic.net/common/?autoRotate=true&type=w560_sharpen&src=https%3A%2F%2Fldb-phinf.pstatic.net%2F20220713_90%2F1657692037070F8g7G_JPEG%2F1657691706869.jpg,4.82,37.49955762216506,126.92624835972748,,"서울특별시 동작구 상도로 78, 3층 (대방동)"
22,크로스핏 보라매. 엘루이짐,https://search.pstatic.net/common/?autoRotate=true&type=w560_sharpen&src=https%3A%2F%2Fldb-phinf.pstatic.net%2F20220714_22%2F1657782767530p45kp_PNG%2FUntitled-2-02.png,4.57,37.49069114671363,126.92106191674516,,"서울특별시 동작구 보라매로5가길 24, 지하2층 (신대방동, 보라매나산스위트)"
23,예스휘트니스센터,,4.0,37.49883413690437,126.9274753026806,02-3280-3030,"서울특별시 동작구 국사봉1길 32, 성대빌딩 3층 (상도동)"
24,클레어 피트니스 필라테스&PT 이수역점,https://search.pstatic.net/common/?autoRotate=true&type=w560_sharpen&src=https%3A%2F%2Fldb-phinf.pstatic.net%2F20220624_98%2F1656064688780aMecc_PNG%2FKakaoTalk_20220624_185708711.png,,37.48426919326965,126.97879598657616,,"서울특별시 동작구 동작대로 85, 5층 (사당동)"
25,투혼짐,https://search.pstatic.net/common/?autoRotate=true&type=w560_sharpen&src=https%3A%2F%2Fldb-phinf.pstatic.net%2F20150901_160%2F1441033893718zbmCW_JPEG%2FSUBMIT_1426577257122_35966449.jpg,,37.513197445520056,126.94230297450608,070-8836-9158,"서울특별시 동작구 만양로18길 15, 3층 (노량진동)"
26,Keep Fit studio,,,37.50780910762673,126.94501145824567,,"서울특별시 동작구 만양로 38, 1층 (노량진동)"
27,고위드 피트니스,https://search.pstatic.net/common/?autoRotate=true&type=w560_sharpen&src=https%3A%2F%2Fldb-phinf.pstatic.net%2F20220523_32%2F1653298256964k89eI_JPEG%2F%25B0%25ED%25C0%25A7%25B5%25E5-%25BA%25B8%25B6%25F3%25B8%25C5%25C1%25A1.jpg,,37.49211036173452,126.92063378503548,02-848-8484,"서울특별시 동작구 보라매로5길 35, 2층 (신대방동, 파크스퀘어,보라매현대APT)"
28,커브스 사당클럽,https://search.pstatic.net/common/?autoRotate=true&type=w560_sharpen&src=https%3A%2F%2Fldb-phinf.pstatic.net%2F20210930_51%2F1632975389387ziigm_PNG%2Fo6MyS1ViG83JSNE_GgVJj65F.png,,37.48846315294249,126.97524345816828,02-3482-7330,"서울특별시 동작구 동작대로29길 69, 금강산보석불가마사우나 404호 (사당동)"
29,J.J GYM,https://search.pstatic.net/common/?autoRotate=true&type=w560_sharpen&src=https%3A%2F%2Fldb-phinf.pstatic.net%2F20220603_131%2F1654220368015CqF3h_JPEG%2FKakaoTalk_20220603_090359209_03.jpg,,37.51344388625497,126.93922415946516,,"서울특별시 동작구 노량진로 146, 이데아빌딩 지1층 (노량진동)"
30,엑스 콩고,https://search.pstatic.net/common/?autoRotate=true&type=w560_sharpen&src=https%3A%2F%2Fldb-phinf.pstatic.net%2F20200730_216%2F1596073444503ezDHN_JPEG%2FDwHBAfob76YRlF4rBzT3jtzR.jpg,,37.51281705259498,126.93877654879084,02-814-9628,"서울특별시 동작구 노량진로 140, 메가스터디타워 B201, B203~B207호 (노량진동)"
31,모브트레이닝 센터,https://search.pstatic.net/common/?autoRotate=true&type=w560_sharpen&src=https%3A%2F%2Fldb-phinf.pstatic.net%2F20210715_106%2F1626335993022baSA9_PNG%2FuzpaOn5VJZEmoVZxsIGMu_3r.PNG.png,,37.51219122911134,126.92929442703664,02-6884-4619,"서울특별시 동작구 등용로 124, 삼하빌딩 지1층 (대방동)"
32,펠리스짐,https://search.pstatic.net/common/?autoRotate=true&type=w560_sharpen&src=https%3A%2F%2Fldb-phinf.pstatic.net%2F20220123_159%2F1642929577222AC9nD_JPEG%2FKakaoTalk_20220123_181759953.jpg,,37.49968716282801,126.918228785889,,"서울특별시 동작구 상도로 8, 3층 (대방동)"
33,얼티밋크로스핏 이수점,https://search.pstatic.net/common/?autoRotate=true&type=w560_sharpen&src=https%3A%2F%2Fldb-phinf.pstatic.net%2F20201124_99%2F1606210006779DyqkU_JPEG%2FjwEgmc3ZKQ6p7Qx_TZCq5cFg.jpg,,37.481927163520126,126.9775352823707,,"서울특별시 동작구 동작대로13길 12, 자매빌딩 지층 (사당동)"
34,휘트니스 벨라,https://search.pstatic.net/common/?autoRotate=true&type=w560_sharpen&src=https%3A%2F%2Fldb-phinf.pstatic.net%2F20220324_122%2F1648106216701apu3h_JPEG%2F%25C0%25CC%25B9%25CC%25C1%25F61.jpg,,37.48824325097631,126.97707439623844,,"서울특별시 동작구 동작대로29길 36, 지하1층 (사당동)"
35,업투 이수역점,https://search.pstatic.net/common/?autoRotate=true&type=w560_sharpen&src=https%3A%2F%2Fldb-phinf.pstatic.net%2F20210709_121%2F1625818613166DBNBo_JPEG%2F-ZayR7uDhlB_YxCji0q-9-CH.jpg,,37.48846315294249,126.97524345816828,,"서울특별시 동작구 동작대로29길 69, 금강산보석불가마사우나 6층 601호 (사당동)"
36,더 본짐,https://search.pstatic.net/common/?autoRotate=true&type=w560_sharpen&src=https%3A%2F%2Fldb-phinf.pstatic.net%2F20211025_232%2F1635145320083usuHA_JPEG%2FtmsDgkVfNT9HkC9546c-ar54.jpg,,37.50404724196344,126.94589115583288,,"서울특별시 동작구 양녕로 269-1, 상도한의원 지1층 (상도1동)"
37,아이런 휘트니스,https://search.pstatic.net/common/?autoRotate=true&type=w560_sharpen&src=https%3A%2F%2Fldb-phinf.pstatic.net%2F20170110_148%2F1484053399631B6Djv_JPEG%2F186060623339501_0.jpeg,,37.49694253026256,126.95064891830012,02-825-5454,"서울특별시 동작구 상도로 357, 지하2층 (상도동)"
38,피트니스 킹덤,https://search.pstatic.net/common/?autoRotate=true&type=w560_sharpen&src=https%3A%2F%2Fldb-phinf.pstatic.net%2F20220302_62%2F1646223192190Su6AH_JPEG%2F12.jpg,,37.49997068839388,126.92452690226298,,"서울특별시 동작구 상도로 61, 지1층 (대방동, 대방주상복합빌딩)"
39,바디테일러 PT,https://search.pstatic.net/common/?autoRotate=true&type=w560_sharpen&src=https%3A%2F%2Fldb-phinf.pstatic.net%2F20220128_80%2F16433509240756Gq7l_JPEG%2FIMG_20210808_132751_685.jpg,,37.49913792881443,126.92271168808983,,"서울특별시 동작구 여의대방로24길 101, 4층 (대방동)"
40,클럽컬리넌,https://search.pstatic.net/common/?autoRotate=true&type=w560_sharpen&src=https%3A%2F%2Fldb-phinf.pstatic.net%2F20220317_97%2F1647492810578Ei3kv_JPEG%2F20220317_125600.jpg,,37.486329677676025,126.97808431877657,,"서울특별시 동작구 동작대로25길 16, 6~7층 (사당동)"
41,트루머슬짐,https://search.pstatic.net/common/?autoRotate=true&type=w560_sharpen&src=https%3A%2F%2Fldb-phinf.pstatic.net%2F20220312_218%2F1647075057808WV4l0_JPEG%2FKakaoTalk_20200606_233307118_05.jpg,,37.49557339009916,126.95064026176352,,"서울특별시 동작구 상도로62길 29, 지하1층 (상도동)"
42,프롬 베이스먼트,https://search.pstatic.net/common/?autoRotate=true&type=w560_sharpen&src=https%3A%2F%2Fldb-phinf.pstatic.net%2F20220529_96%2F1653818448806ERqmO_JPEG%2FIMG_4989_2.jpg,,37.49788011231075,126.92311971880508,,"서울특별시 동작구 여의대방로22길 110, 지1층 (신대방동)"
