id,name,img,grade,lat,lng,phoneNumber,address
0,웰씨짐,https://search.pstatic.net/common/?autoRotate=true&type=w560_sharpen&src=https%3A%2F%2Fldb-phinf.pstatic.net%2F20201109_117%2F16049164886477k4Ho_JPEG%2FVQgjwLMNqPaMSc5QzYAK5w1N.jpg,,37.497123064279656,127.04855051406336,02-566-6301,서울특별시 강남구 선릉로63길 9 (역삼동)
1,TABFIT,https://search.pstatic.net/common/?autoRotate=true&type=w560_sharpen&src=https%3A%2F%2Fldb-phinf.pstatic.net%2F20210721_48%2F1626843938799iewrH_JPEG%2FnNnsXfI0hWUU9A72qfUaQlZX.jpg,5,37.50249870755614,127.05453205703077,565-1259,"서울특별시 강남구 역삼로 458, 지하1층 (대치동, 영미빌딩)"
2,잭스 피트니스,https://search.pstatic.net/common/?autoRotate=true&type=w560_sharpen&src=https%3A%2F%2Fldb-phinf.pstatic.net%2F20200508_166%2F1588917361641dEFYW_JPEG%2FFKeaRrWbpwK8wa7_OWAdAYPJ.jpg,,37.50925964095157,127.03069062165576,518-8974,서울특별시 강남구 논현로116길 6 (논현동)
3,드림팩토리짐,https://search.pstatic.net/common/?autoRotate=true&type=w560_sharpen&src=https%3A%2F%2Fldb-phinf.pstatic.net%2F20211116_294%2F1637023325060kKtRK_JPEG%2FKakaoTalk_20211104_215025277_02.jpg,,37.50243885882252,127.03296675054773,566-7095,"서울특별시 강남구 논현로 513 (역삼동,2층)"
4,헬스보이짐 선릉점,https://search.pstatic.net/common/?autoRotate=true&type=w560_sharpen&src=https%3A%2F%2Fldb-phinf.pstatic.net%2F20220510_195%2F1652135851512UacKU_JPEG%2FKakaoTalk_20220510_073706815.jpg,,37.5039650857982,127.04285551325094,562-4228,"서울특별시 강남구 테헤란로 317 (역삼동,지층)"
5,헬스보이짐 강남역점,https://search.pstatic.net/common/?autoRotate=true&type=w560_sharpen&src=https%3A%2F%2Fldb-phinf.pstatic.net%2F20220630_243%2F1656539618820AL4P5_JPEG%2F1.jpg,4.9,37.49655498023284,127.02674527292265,562-0161,"서울특별시 강남구 테헤란로2길 27, 지하1,2층 (역삼동)"
6,GOTO 논현,https://search.pstatic.net/common/?autoRotate=true&type=w560_sharpen&src=https%3A%2F%2Fldb-phinf.pstatic.net%2F20191220_94%2F15768328937005dwls_JPEG%2FI9Pc7YFabClhHGrsYsr_9T3B.jpg,4.9,37.51170319326257,127.01860242392222,,"서울특별시 강남구 강남대로 556, 논현빌딩 지하1층 (논현동)"
7,U.N.D 퍼스널트레이닝,https://search.pstatic.net/common/?autoRotate=true&type=w560_sharpen&src=https%3A%2F%2Fldb-phinf.pstatic.net%2F20211101_143%2F1635751652341t2GsR_JPEG%2Fc3-IOl9m71PgLUtkiA23Xa3q.jpeg.jpg,,37.524285325086566,127.04216003069149,02-518-5777,"서울특별시 강남구 도산대로 447 (청담동,(2층))"
8,피트니스 라운지 도곡점,https://search.pstatic.net/common/?autoRotate=true&type=w560_sharpen&src=https%3A%2F%2Fldb-phinf.pstatic.net%2F20220719_7%2F1658234773270OsKz5_JPEG%2F%2528dot_kim%2529_butfit_crop_-43.jpg,,37.488672579380484,127.04921217075393,,"서울특별시 강남구 언주로30길 21, B201-2호 (도곡동, 아카데미스위트)"
9,GOTO 수서,https://search.pstatic.net/common/?autoRotate=true&type=w560_sharpen&src=https%3A%2F%2Fldb-phinf.pstatic.net%2F20191220_282%2F15768299831158syhO_JPEG%2Fy8PjoS9rXrSFLKIE3M8xrPpq.jpg,3.93,37.49269400602168,127.07273820828834,02-554-5041,"서울특별시 강남구 개포로 615 (개포동,석탑프라자 7층)"
10,헬스 IHL PT studio,https://search.pstatic.net/common/?autoRotate=true&type=w560_sharpen&src=https%3A%2F%2Fldb-phinf.pstatic.net%2F20190529_90%2F1559101270520feHut_JPEG%2FhBCK3Gs2jrzYZ_jQd3t27iuu.jpeg.jpg,,37.52249499722736,127.05184246178936,070-4415-8970,"서울특별시 강남구 학동로97길 42 (청담동,키즈12 빌딩 6층)"
11,저스트짐,https://search.pstatic.net/common/?autoRotate=true&type=w560_sharpen&src=https%3A%2F%2Fldb-phinf.pstatic.net%2F20191119_48%2F1574152253474VRn8S_JPEG%2Fw7ujw-JCAVCiFbQiD2NYoup6.JPG.jpg,,37.4931372900276,127.03133909850658,,"서울특별시 강남구 역삼로8길 15, 지하1층, 1층 (역삼동)"
12,BNB 퍼스널 트레이닝 스튜디오,https://search.pstatic.net/common/?autoRotate=true&type=w560_sharpen&src=https%3A%2F%2Fldb-phinf.pstatic.net%2F20201202_229%2F16068764314008KfYf_JPEG%2F0d4TeFWk9faxeX0QEmztRwgU.jpg,,37.52624441342244,127.03341233790765,,"서울특별시 강남구 압구정로46길 35, 2층 (신사동)"
13,닥터피티,https://search.pstatic.net/common/?autoRotate=true&type=w560_sharpen&src=https%3A%2F%2Fldb-phinf.pstatic.net%2F20180309_159%2F1520579440386akXN8_JPEG%2FDXXBodjVzWkdhJe_AC2ffeVk.jpg,,37.52366220025913,127.04426072125572,,"서울특별시 강남구 도산대로78길 5, 3층 (청담동)"
14,팔로우짐,https://search.pstatic.net/common/?autoRotate=true&type=w560_sharpen&src=https%3A%2F%2Fldb-phinf.pstatic.net%2F20200914_90%2F1600052068334pNpty_JPEG%2FU-elrrPUPM1g6Ma9q-1rk_DA.jpg,4.88,37.468503609258846,127.09913084412064,02-451-2486,서울특별시 강남구 헌릉로 569 (세곡동)
15,아크로짐 논현점,https://search.pstatic.net/common/?autoRotate=true&type=w560_sharpen&src=https%3A%2F%2Fldb-phinf.pstatic.net%2F20220628_259%2F1656382416595EK1Ck_JPEG%2F%25B3%25ED%25C7%25F6%25B5%25BF_%25C1%25F6%25BC%25D2%25BB%25F3.jpeg,4.95,37.51917044848229,127.02581763111239,02-540-4054,서울특별시 강남구 논현로 752 (논현동)
16,GOTO 청담,https://search.pstatic.net/common/?autoRotate=true&type=w560_sharpen&src=https%3A%2F%2Fldb-phinf.pstatic.net%2F20220622_158%2F1655885234674GtMQM_JPEG%2F%25B4%25D9%25BF%25EE%25B7%25CE%25B5%25E5.jpeg,,37.51832900851635,127.04969675240226,5113004,서울특별시 강남구 학동로88길 12 (삼성동)
17,빌드업 운동센터,https://search.pstatic.net/common/?autoRotate=true&type=w560_sharpen&src=https%3A%2F%2Fldb-phinf.pstatic.net%2F20210909_108%2F1631156944924Btpbx_JPEG%2FKakaoTalk_20210909_120729982_03.jpg,4.9,37.48986662255967,127.03063688619585,,"서울특별시 강남구 도곡로 120, 세원빌딩 2층 (도곡동)"
18,휘트니스모션,https://search.pstatic.net/common/?autoRotate=true&type=w560_sharpen&src=https%3A%2F%2Fldb-phinf.pstatic.net%2F20211026_157%2F1635232352747D4pCu_JPEG%2FRLCvTytcNe1XeBWxuTueK0du.jpg,4.94,37.52435325125379,127.04869773707199,,"서울특별시 강남구 도산대로 532, 청담동 (청담동)"
19,브이엠휘트니스 삼성점,https://search.pstatic.net/common/?autoRotate=true&type=w560_sharpen&src=https%3A%2F%2Fldb-phinf.pstatic.net%2F20201026_190%2F1603687307960gwQg4_JPEG%2FjCUtSbNw6Md1QNVNT8Jx-AGi.jpg,4.8,37.51645305561479,127.04829784345323,02-517-7654,"서울특별시 강남구 삼성로 633, 지하1층 (삼성동, 삼광빌딩)"
20,오브 휘트니스,https://search.pstatic.net/common/?autoRotate=true&type=w560_sharpen&src=https%3A%2F%2Fldb-phinf.pstatic.net%2F20220307_15%2F1646618613133YFyXi_JPEG%2FKakaoTalk_20220307_073333319.jpg,,37.507542607788295,127.03289317819205,,"서울특별시 강남구 봉은사로 214, B2층 (역삼동, 한솔빌딩)"
21,F&G 피트니스&골프 재활센터,https://search.pstatic.net/common/?autoRotate=true&type=w560_sharpen&src=https%3A%2F%2Fldb-phinf.pstatic.net%2F20200514_171%2F1589458666552vt33R_JPEG%2Fe-uslv9wzHlS0ULxfrs7YtyP.jpg,,37.500952487848835,127.03219032077038,1833-7838/1522-7838,"서울특별시 강남구 테헤란로25길 7 (역삼동, 창성재단빌딩)"
22,NY GYM,https://search.pstatic.net/common/?autoRotate=true&type=w560_sharpen&src=https%3A%2F%2Fldb-phinf.pstatic.net%2F20161210_113%2F1481360765357qbCln_JPEG%2F177160583625231_0.jpeg,,37.50503976084744,127.04109146418496,0507-1404-6071,서울특별시 강남구 테헤란로43길 27 (역삼동)
23,스타짐23,,,37.52688982419391,127.04284357953676,,"서울특별시 강남구 압구정로71길 4, 지하1층 (청담동, 미산빌딩)"
24,FLY GYM 플라이짐,https://search.pstatic.net/common/?autoRotate=true&type=w560_sharpen&src=https%3A%2F%2Fldb-phinf.pstatic.net%2F20220712_251%2F1657590923662M05WT_JPEG%2F5e546f2ba6b5facde2450b74_qedgolf-intro.jpg,4.89,37.50100949846099,127.03582595443791,,"서울특별시 강남구 테헤란로 204, 3층 (역삼동, 범진빌딩)"
25,라비아 피트니스,https://search.pstatic.net/common/?autoRotate=true&type=w560_sharpen&src=https%3A%2F%2Fldb-phinf.pstatic.net%2F20201101_296%2F1604241942944BJGYG_JPEG%2Fo90PrDGbtI8erv5yG1Lf9XC-.jpg,,37.49906009982855,127.04904034733747,,서울특별시 강남구 선릉로 328 (대치동)
26,모모스크린골프,https://search.pstatic.net/common/?autoRotate=true&type=w560_sharpen&src=https%3A%2F%2Fldb-phinf.pstatic.net%2F20181214_216%2F1544773405692X78ck_JPEG%2F-uJhETDkCIW9xebQcCz7Fmd6.jpg,4.27,37.52482325244632,127.02253391169829,515-1714,서울특별시 강남구 압구정로20길 15 (신사동)
27,핏플로우 짐,https://search.pstatic.net/common/?autoRotate=true&type=w560_sharpen&src=https%3A%2F%2Fldb-phinf.pstatic.net%2F20220323_9%2F1648037738703IRFoV_JPEG%2FKakaoTalk_20220323_210735832.jpg,,37.525009204020975,127.04531470928492,,"서울특별시 강남구 압구정로79길 14, 4층 (청담동)"
28,이엠핏&필라테스,https://search.pstatic.net/common/?autoRotate=true&type=w560_sharpen&src=https%3A%2F%2Fldb-phinf.pstatic.net%2F20180510_156%2F1525953571673oXAc4_JPEG%2F50wdwhQqevI9_bxHz5OivGOx.JPG.jpg,,37.500181721247415,127.04865851794307,02-564-3337,"서울특별시 강남구 선릉로 340, 9층 (대치동, 대치 EM 프라자)"
29,본 스토리,https://search.pstatic.net/common/?autoRotate=true&type=w560_sharpen&src=https%3A%2F%2Fldb-phinf.pstatic.net%2F20220411_71%2F1649681777265GDfvQ_PNG%2F20220411_215546.png,4.5,37.528052152690975,127.03400126891367,,"서울특별시 강남구 압구정로46길 5-2, 원일 3층 (신사동)"
30,diamond fit,https://search.pstatic.net/common/?autoRotate=true&type=w560_sharpen&src=https%3A%2F%2Fldb-phinf.pstatic.net%2F20191111_161%2F1573439103282QVtHi_JPEG%2FLIXf3jr5aJygWk5UabGuLwFo.jpg,,37.5023752092684,127.05079436826652,,"서울특별시 강남구 선릉로76길 36, 2층 (대치동, 명신빌딩)"
31,김성훈 골프아카데미,,,37.52716706726738,127.04659947172007,,"서울특별시 강남구 도산대로85길 39, 지하1층 (청담동)"
32,Golden time studio,https://search.pstatic.net/common/?autoRotate=true&type=w560_sharpen&src=https%3A%2F%2Fldb-phinf.pstatic.net%2F20190729_209%2F1564367763757UFt2E_JPEG%2FKoFsN-KQ9rqJADUJju3lJy0w.jpg,4.77,37.522767747580005,127.01844717847744,070-8885-0717,"서울특별시 강남구 압구정로8길 10, 지하1층 (신사동, BOGO빌딩)"
33,TEAM ANSWER PT SHOP,https://search.pstatic.net/common/?autoRotate=true&type=w560_sharpen&src=https%3A%2F%2Fldb-phinf.pstatic.net%2F20220126_242%2F1643123093649znoor_JPEG%2FKakaoTalk_20191108_234557402-tile.jpg,,37.52877889841607,127.03239607784916,02-512-5122,"서울특별시 강남구 압구정로 310, 지하1층 (신사동)"
34,더바른몸,https://search.pstatic.net/common/?autoRotate=true&type=w560_sharpen&src=https%3A%2F%2Fldb-phinf.pstatic.net%2F20190816_262%2F1565944421497TozP3_JPEG%2F%25B4%25F5%25B9%25D9%25B8%25A5%25B8%25F6-%25C3%25D6%25C1%25BE%25B7%25CE%25B0%25ED.jpg,4.77,37.5050067253514,127.02250683528091,02-3444-2080,"서울특별시 강남구 봉은사로 107, 지하1층 (논현동)"
35,마음가짐,https://search.pstatic.net/common/?autoRotate=true&quality=95&type=w750&src=https%3A%2F%2Fldb-phinf.pstatic.net%2F20200808_299%2F1596847211171tQizn_JPEG%2FS33bq0-L8rZONU5KoTnFd5Jb.jpg,,37.510434492172536,127.052776952013,02-554-9910,"서울특별시 강남구 테헤란로81길 51, 3층 (삼성동)"
36,나아짐,https://search.pstatic.net/common/?autoRotate=true&type=w560_sharpen&src=https%3A%2F%2Fldb-phinf.pstatic.net%2F20220626_154%2F1656219039501Xa5n7_JPEG%2F20220625_151649_Burst01.jpg,,37.52603995649241,127.02761563429965,,"서울특별시 강남구 압구정로34길 32, 성우 에이치 지하1층 (신사동)"
37,바디트레인,https://search.pstatic.net/common/?autoRotate=true&type=w560_sharpen&src=https%3A%2F%2Fldb-phinf.pstatic.net%2F20150902_26%2F1441124784724xrega_JPEG%2F156563517878296_0.jpeg,,37.498838672707464,127.03058859213459,02-557-3737,"서울특별시 강남구 논현로87길 41, 신일유토빌 2층 201호 (역삼동)"
38,크라크라짐,https://search.pstatic.net/common/?autoRotate=true&type=w560_sharpen&src=https%3A%2F%2Fldb-phinf.pstatic.net%2F20220614_18%2F1655135334559b3owB_PNG%2FKakaoTalk_20220614_004818232_02.png,,37.52201336552972,127.03624081024262,,"서울특별시 강남구 선릉로 755, 진성빌딩 지하1층 (논현동)"
39,올댓바디,https://search.pstatic.net/common/?autoRotate=true&type=w560_sharpen&src=https%3A%2F%2Fldb-phinf.pstatic.net%2F20200110_194%2F1578640513896bRcNU_JPEG%2FDev0eFKlUSOWH2r5e8ILkQSd.jpg,,37.52308405395523,127.01986829822677,02-3443-3300,"서울특별시 강남구 압구정로12길 13, 동성빌딩 3층 (신사동)"
40,로그짐 삼성점,https://search.pstatic.net/common/?autoRotate=true&type=w560_sharpen&src=https%3A%2F%2Fldb-phinf.pstatic.net%2F20220608_299%2F1654641162727UWu4c_JPEG%2F1CF7019F-516F-49E0-B4E6-453E7435E9BD.jpeg,4.93,37.51038862813686,127.05477292483965,02-553-9682,"서울특별시 강남구 테헤란로87길 39, 심스빌딩 B2층 (삼성동)"
41,올댓바스켓,https://search.pstatic.net/common/?autoRotate=true&type=w560_sharpen&src=https%3A%2F%2Fldb-phinf.pstatic.net%2F20220511_3%2F1652252719169T1kmw_JPEG%2FKakaoTalk_20220511_155902891.jpg,4.55,37.49956370649909,127.05877747029037,02-1600-0535,"서울특별시 강남구 도곡로 505, 지하2,3층 (대치동)"
42,주식회사 기븐,,,37.524245835309905,127.03950412019633,02-512-0885,"서울특별시 강남구 선릉로152길 34, 지하1층 (청담동)"
43,대청spo5,https://search.pstatic.net/common/?autoRotate=true&type=w560_sharpen&src=https%3A%2F%2Fldb-phinf.pstatic.net%2F20190729_79%2F156438801367008cRf_JPEG%2FxRhiSoJGGaqif58aceAQm_BI.JPG.jpg,4.43,37.4943479339286,127.07672585112351,02-3413-7400,"서울특별시 강남구 개포로 623, 대청타워 3층 (개포동)"
44,리젠트핏,https://search.pstatic.net/common/?autoRotate=true&type=w560_sharpen&src=https%3A%2F%2Fldb-phinf.pstatic.net%2F20211222_234%2F1640144236020paGdr_JPEG%2F1FC4CC12-3EB3-45BC-A5C5-68A1110B5C83.jpeg,,37.50966932021444,127.02794884129504,070-4300-9682,"서울특별시 강남구 논현로119길 23, B1층 (논현동)"
45,로그짐 PT 선릉점,https://search.pstatic.net/common/?autoRotate=true&type=w560_sharpen&src=https%3A%2F%2Fldb-phinf.pstatic.net%2F20210826_68%2F1629969129589fI36i_PNG%2Fp-dTnfkePKnh7btIrI6wnSWO.png,4.74,37.50415112432145,127.04920765074941,02-538-9682,"서울특별시 강남구 선릉로86길 31, 롯데골드로즈2 2층 214호 (대치동)"
46,CD BOXING FIT,https://search.pstatic.net/common/?autoRotate=true&type=w560_sharpen&src=https%3A%2F%2Fldb-phinf.pstatic.net%2F20190109_36%2F1547030396065x4YKw_JPEG%2FmFX0QUfHqQp3Qr-PrMR0Y8pB.jpeg.jpg,5,37.492489902616846,127.03731825227642,02-555-8119,"서울특별시 강남구 도곡로 191, 상운빌딩 3층 (역삼동)"
47,Thera PT,https://search.pstatic.net/common/?autoRotate=true&type=w560_sharpen&src=https%3A%2F%2Fldb-phinf.pstatic.net%2F20211227_47%2F16405873444133xrOn_JPEG%2FIMG_20211220_182314_724.jpg,5,37.50801525285973,127.03173291404606,,"서울특별시 강남구 봉은사로29길 5, B01호 (논현동)"
48,로그짐 역삼점,https://search.pstatic.net/common/?autoRotate=true&type=w560_sharpen&src=https%3A%2F%2Fldb-phinf.pstatic.net%2F20220411_277%2F1649685438999o4NNQ_JPEG%2FKakaoTalk_20220411_203353147.jpg,4.79,37.49817676092688,127.03075343548494,02-538-9682,"서울특별시 강남구 논현로85길 52, 역삼 푸르지오 시티 B1층 101호 (역삼동)"
49,바디핏 스타일,https://search.pstatic.net/common/?autoRotate=true&type=w560_sharpen&src=https%3A%2F%2Fldb-phinf.pstatic.net%2F20190912_148%2F1568232186357B5x3P_JPEG%2FDNmRX7FEFwGcAp48MwApnhdC.jpg,,37.52312124453408,127.03185326760479,,"서울특별시 강남구 언주로152길 15-5, 지하1층 (신사동)"
50,최원준 GYM,https://search.pstatic.net/common/?autoRotate=true&type=w560_sharpen&src=https%3A%2F%2Fldb-phinf.pstatic.net%2F20190515_52%2F1557924519784pTWvr_JPEG%2FmNDdnFga5q43brQ3pF1SVCKH.jpg,,37.49360623635136,127.05680991222943,,"서울특별시 강남구 남부순환로 2921, 남서울종합상가 308호 (대치동)"
51,R&FIT,https://search.pstatic.net/common/?autoRotate=true&type=w560_sharpen&src=https%3A%2F%2Fldb-phinf.pstatic.net%2F20191005_44%2F1570246837033VR14N_JPEG%2FaqOee0jFNDnsQHQsANXChRQt.jpg,,37.5013395642759,127.03904155873364,,"서울특별시 강남구 언주로85길 14, 엠코스퀘어720 지하2층 (역삼동)"
52,선릉역점 스포애니,https://search.pstatic.net/common/?autoRotate=true&type=w560_sharpen&src=https%3A%2F%2Fldb-phinf.pstatic.net%2F20190806_256%2F1565084356725TXyTc_JPEG%2F10tSaKk9OQd1afEMrM9tUrAx.JPG.jpg,4.2,37.50528201139083,127.04541800028755,02-565-9618,"서울특별시 강남구 선릉로 513, APEXTOWER 지하1층 (역삼동)"
53,디엔엘고,,5,37.5230702614288,127.05358709126874,02-6011-9696,"서울특별시 강남구 영동대로138길 9, 303호 (청담동)"
54,min to MAX,https://search.pstatic.net/common/?autoRotate=true&type=w560_sharpen&src=https%3A%2F%2Fldb-phinf.pstatic.net%2F20191118_47%2F1574047861073yGapI_JPEG%2FUec2fhwuJcxEtmRFpHHZ_GU2.jpeg.jpg,,37.51579839934978,127.02769006110252,,"서울특별시 강남구 논현로136길 6, 3층 (논현동)"
55,로그짐 대치점,https://search.pstatic.net/common/?autoRotate=true&type=w560_sharpen&src=https%3A%2F%2Fldb-phinf.pstatic.net%2F20190927_214%2F1569550966070qUlkx_JPEG%2FZ6gTjYluhrjTSUuHQggZ-3Av.jpg,4.81,37.50020471810112,127.05694237360025,6339-9682,"서울특별시 강남구 삼성로 317, 우석빌딩 지하2층 (대치동)"
56,올플렉스짐,https://search.pstatic.net/common/?autoRotate=true&type=w560_sharpen&src=https%3A%2F%2Fldb-phinf.pstatic.net%2F20210330_51%2F1617089028686uEphw_JPEG%2Fpkq2f5nziehc2mMhFz03Th3k.jpg,5,37.49507165190009,127.03577370506906,,"서울특별시 강남구 논현로71길 10, 5층 (역삼동)"
57,에이트바디,https://search.pstatic.net/common/?autoRotate=true&type=w560_sharpen&src=https%3A%2F%2Fldb-phinf.pstatic.net%2F20170210_55%2F1486690372522F5qS3_JPEG%2F186160506272246_1.jpeg,4.94,37.5221998549553,127.0261752342391,02-514-0882,"서울특별시 강남구 논현로158길 7, 지하1층 (신사동)"
58,크로스핏 강남(언주),https://search.pstatic.net/common/?autoRotate=true&type=w560_sharpen&src=https%3A%2F%2Fldb-phinf.pstatic.net%2F20200405_290%2F1586095305007WFeE0_JPEG%2F6IPr7aURE9xWLRZee4FvQpnT.jpg,,37.50860905280312,127.03072684388465,,"서울특별시 강남구 논현로 614, ARTISAN 빌 지하3층 (논현동)"
59,스카이짐,,5,37.50953865223369,127.02372632757275,,서울특별시 강남구 학동로20길 67 (논현동)
60,피트니스플랜비,https://search.pstatic.net/common/?autoRotate=true&type=w560_sharpen&src=https%3A%2F%2Fldb-phinf.pstatic.net%2F20210712_67%2F1626072461662htHsE_JPEG%2FHsBhN9wNzdK2rFBECXRoARUK.jpg,4.98,37.49274288560711,127.03810126575912,,"서울특별시 강남구 도곡로 203, 남자빌딩 3층 (역삼동)"
61,식스컷츠,https://search.pstatic.net/common/?autoRotate=true&type=w560_sharpen&src=https%3A%2F%2Fldb-phinf.pstatic.net%2F20220528_68%2F1653708133977vT3a9_JPEG%2F1AA3D6EB-F9BC-4BA3-ACC2-5A67CD729F68.jpeg,5,37.5244910052236,127.03694792228453,,"서울특별시 강남구 선릉로 814, 엠디가슴성형센터빌딩 (청담동)"
62,Beyond Fitness Club,https://search.pstatic.net/common/?autoRotate=true&type=w560_sharpen&src=https%3A%2F%2Fldb-phinf.pstatic.net%2F20210903_140%2F1630639978912atw0p_JPEG%2FWZ58FRKMrO9HtwQWP7gjGXpO.jpg,5,37.49210552484586,127.03614324809352,,"서울특별시 강남구 도곡로 181, 일성빌딩 지하1층 (역삼동)"
63,Hoon fit(훈핏),https://search.pstatic.net/common/?autoRotate=true&type=w560_sharpen&src=https%3A%2F%2Fldb-phinf.pstatic.net%2F20200813_220%2F1597300676708tXSuH_JPEG%2FDAXW-zwHx6_ujoUX_WT7lofS.jpeg.jpg,,37.50708768944671,127.03276038003897,,"서울특별시 강남구 언주로107길 44, 더나무앤 빌딩 (역삼동)"
64,에이블짐 압구정로데오점,,4.96,37.528495621688386,127.03352720812053,02-6952-3036,"서울특별시 강남구 압구정로 320, 극동Gallery (신사동)"
65,더 클래식 바디랩,https://search.pstatic.net/common/?autoRotate=true&type=w560_sharpen&src=https%3A%2F%2Fldb-phinf.pstatic.net%2F20201105_203%2F1604562994826g6Unw_JPEG%2FkIifc-5pdn70OzZw0o66hlP4.jpg,,37.487096284907075,127.10091366915067,02-2226-1118,서울특별시 강남구 광평로56길 10 (수서동)
66,핏앤 리프트,https://search.pstatic.net/common/?autoRotate=true&type=w560_sharpen&src=https%3A%2F%2Fldb-phinf.pstatic.net%2F20220426_74%2F1650958506962h6BCa_JPEG%2FKakaoTalk_20220408_195350614.jpg,4.98,37.51746739024085,127.01775965312083,02-6080-9600,서울특별시 강남구 강남대로152길 15 (신사동)
67,바디튜토리얼,https://search.pstatic.net/common/?autoRotate=true&type=w560_sharpen&src=https%3A%2F%2Fldb-phinf.pstatic.net%2F20211130_97%2F1638231598691PY7hM_JPEG%2F%25C0%25CC%25C0%25E7%25BF%25EB_%25C6%25A9%25C5%25CD.jpeg,4.94,37.49355590866111,127.02736069383519,,"서울특별시 강남구 강남대로 340, 경원빌딩 (역삼동)"
68,액트짐 신논현점,https://search.pstatic.net/common/?autoRotate=true&type=w560_sharpen&src=https%3A%2F%2Fldb-phinf.pstatic.net%2F20220704_141%2F1656903425335FrMcN_PNG%2F220704-%25BE%25D7%25C6%25AE%25C1%25FC-%25B3%25D7%25C0%25CC%25B9%25F6%25C7%25C3%25B7%25B9%25C0%25CC%25BD%25BA-7%25BF%25F9%25B0%25F8%25B5%25BF%25B1%25B8%25B8%25C5_%25281%2529.png,4.94,37.50468452760733,127.02353647872386,,"서울특별시 강남구 봉은사로 116, 은성빌딩 (역삼동)"
69,커브스 세곡클럽,https://search.pstatic.net/common/?autoRotate=true&type=w560_sharpen&src=https%3A%2F%2Fldb-phinf.pstatic.net%2F20210423_124%2F16191588276839ccrE_PNG%2F1FapcKUSs5VFAHB6rUvFV5j2.png,,37.4667945964606,127.09804521368471,02-3412-7797,"서울특별시 강남구 헌릉로569길 9, 강남지웰파인즈 (세곡동)"
70,YOON GYM,https://search.pstatic.net/common/?autoRotate=true&type=w560_sharpen&src=https%3A%2F%2Fldb-phinf.pstatic.net%2F20201111_231%2F1605105425741M2FLb_PNG%2FqIzrDo8XOWi-YgOWpoujGk1f.png,,37.51708298599368,127.0288198771292,,"서울특별시 강남구 논현로140길 30, 지하1층 (논현동)"
71,짐타운,https://search.pstatic.net/common/?autoRotate=true&type=w560_sharpen&src=https%3A%2F%2Fldb-phinf.pstatic.net%2F20201027_41%2F1603766147897V1EEk_PNG%2Fy01ProfruXGfSPPCPz7XihDe.png,,37.527634030859176,127.03200026071796,,서울특별시 강남구 언주로172길 14 (신사동)
72,온유어짐 PT studio 압구정,https://search.pstatic.net/common/?autoRotate=true&type=w560_sharpen&src=https%3A%2F%2Fldb-phinf.pstatic.net%2F20210309_64%2F1615266379337rPaTO_JPEG%2FmosasvRX60.jpeg,4.96,37.52723268871523,127.02725357826085,02-518-4147,"서울특별시 강남구 논현로176길 20, 지하1층 (신사동)"
73,애니타임피트니스 역삼점,https://search.pstatic.net/common/?autoRotate=true&type=w560_sharpen&src=https%3A%2F%2Fldb-phinf.pstatic.net%2F20220503_171%2F16515441270313Qk1K_JPEG%2F1.jpg,5,37.4965138728862,127.0364040454316,,"서울특별시 강남구 논현로 406, 다영빌딩 1~2층 (역삼동)"
74,팀 서빈짐,https://search.pstatic.net/common/?autoRotate=true&type=w560_sharpen&src=https%3A%2F%2Fldb-phinf.pstatic.net%2F20200525_50%2F1590341999562tcbwC_JPEG%2FsCbvGbZxUQVbZeoPjxDxmVPQ.jpeg.jpg,5,37.50932746212829,127.03309592483504,02-512-1202,서울특별시 강남구 언주로113길 16 (논현동)
75,알이에스피(RES.P),https://search.pstatic.net/common/?autoRotate=true&type=w560_sharpen&src=https%3A%2F%2Fldb-phinf.pstatic.net%2F20210216_208%2F1613470515477oGnVF_JPEG%2FI0cy7NLLOXLhn6k1oqZ67zNz.jpg,,37.5273158132847,127.03307612731977,,"서울특별시 강남구 언주로172길 28, 오리엔탈빌딩 지하층 (신사동)"
76,레드준,https://search.pstatic.net/common/?autoRotate=true&type=w560_sharpen&src=https%3A%2F%2Fldb-phinf.pstatic.net%2F20200309_145%2F1583736398933Llx28_JPEG%2FtcY4qwuohWjkLutECyJAb84S.jpg,,37.49760396455197,127.03516317087423,,"서울특별시 강남구 논현로 419, PMK 빌딩 지하1층 (역삼동)"
77,F45 신논현,https://search.pstatic.net/common/?autoRotate=true&type=w560_sharpen&src=https%3A%2F%2Fldb-phinf.pstatic.net%2F20220210_18%2F1644488419847m2Dir_JPEG%2F67B3413D-C7AF-4E24-BD7A-B4D9509C8E95.jpeg,,37.505373722798254,127.02322593645292,,"서울특별시 강남구 봉은사로 115, 노벨테크빌딩 B1층 (논현동)"
78,고알레 클럽하우스,https://search.pstatic.net/common/?autoRotate=true&type=w560_sharpen&src=https%3A%2F%2Fldb-phinf.pstatic.net%2F20200922_108%2F1600740094830P0E46_JPEG%2FArkSCICFLZCmZy343HVqSqpr.jpg,,37.52234848460455,127.03483106021083,02-3445-5256,"서울특별시 강남구 도산대로 326, 대동타워 지하1층 (논현동)"
79,빌리프짐 선릉역점,https://search.pstatic.net/common/?autoRotate=true&type=w560_sharpen&src=https%3A%2F%2Fldb-phinf.pstatic.net%2F20200826_36%2F1598423759897QSmuK_JPEG%2FcJuvFCwDB7EiLbgQe5_pCphn.jpg,4.86,37.505949028059824,127.0470178191641,02-552-9679,"서울특별시 강남구 테헤란로63길 9, B1층 (삼성동)"
80,리스튜디오,https://search.pstatic.net/common/?autoRotate=true&type=w560_sharpen&src=https%3A%2F%2Fldb-phinf.pstatic.net%2F20210506_31%2F1620239475712a0yWD_JPEG%2F_ZAen0Gkeo1GUbnVa9U1MgSb.jpg,,37.520611968197066,127.04141815777658,,"서울특별시 강남구 삼성로147길 66, 지하2층 (청담동)"
81,휘트니스엠 양재,https://search.pstatic.net/common/?autoRotate=true&type=w560_sharpen&src=https%3A%2F%2Fldb-phinf.pstatic.net%2F20220707_104%2F1657178056487srWCR_PNG%2F%25C8%25AD%25B8%25E9_%25C4%25B8%25C3%25B3_2022-06-15_134410.png,,37.48530931787664,127.03151341750423,02-571-0058,"서울특별시 강남구 강남대로 240, 양재SK허브프리모 지하2층 (도곡동)"
82,니드핏(Need Fit),https://search.pstatic.net/common/?autoRotate=true&type=w560_sharpen&src=https%3A%2F%2Fldb-phinf.pstatic.net%2F20210329_133%2F1617017049363fT1Rx_JPEG%2F6xi6v4m0vULgjuC4YADfuagw.jpeg.jpg,,37.509509642218845,127.03360732652885,,"서울특별시 강남구 언주로113길 10, 4층 (논현동)"
83,GAME CHANGER(게임체인저),https://search.pstatic.net/common/?autoRotate=true&type=w560_sharpen&src=https%3A%2F%2Fldb-phinf.pstatic.net%2F20211108_33%2F1636356111286J2UvK_JPEG%2FKy_3K6g3njSooVGeo0WbKI0W.jpg,,37.5282034399502,127.02940682513781,,"서울특별시 강남구 언주로173길 14, 4층 (신사동)"
84,윔짐,https://search.pstatic.net/common/?autoRotate=true&type=w560_sharpen&src=https%3A%2F%2Fldb-phinf.pstatic.net%2F20210525_201%2F1621870643857VNxyI_JPEG%2FHrxOLwJOmBYPczEdJYWywK38.jpeg.jpg,,37.47206350968388,127.10607063428498,,"서울특별시 강남구 밤고개로23길 10-23, B1층 (율현동, 율현동 196-86 다세대주택)"
85,나비드짐 PT&필라테스 선릉점,https://search.pstatic.net/common/?autoRotate=true&type=w560_sharpen&src=https%3A%2F%2Fldb-phinf.pstatic.net%2F20210611_250%2F1623411122343ncf20_JPEG%2FoEpXpBza8gOZeZwa-5WgDtiD.jpg,5,37.50330334391056,127.04742767480451,02-555-9422,"서울특별시 강남구 선릉로86길 7, B1층 (대치동)"
86,이루짐 피티샵,https://search.pstatic.net/common/?autoRotate=true&type=w560_sharpen&src=https%3A%2F%2Fldb-phinf.pstatic.net%2F20220519_62%2F16529444931308Mpod_JPEG%2FIMG_4491.jpeg,5,37.504282877529576,127.05540684407791,,"서울특별시 강남구 삼성로 416, 은혜빌딩 지하1층 (대치동)"
87,Back Gym(백짐),https://search.pstatic.net/common/?autoRotate=true&type=w560_sharpen&src=https%3A%2F%2Fldb-phinf.pstatic.net%2F20210722_277%2F1626924798608fdM81_JPEG%2F-ACx_GxgWgAVccb5TuMdpDev.jpg,5,37.512287944258304,127.04419399535713,,"서울특별시 강남구 봉은사로63길 14, B1층 (삼성동)"
88,바비스튜디오,https://search.pstatic.net/common/?autoRotate=true&type=w560_sharpen&src=https%3A%2F%2Fldb-phinf.pstatic.net%2F20210820_35%2F1629418672146PqkAP_JPEG%2F-wzrtiGBCx-s8RvUkJHu1n0G.JPG.jpg,,37.5189651604313,127.04648046131298,,"서울특별시 강남구 학동로 443, 정한빌딩 402호 (청담동)"
89,에슬레틱 플로우,,,37.495023145667744,127.0816008346205,,"서울특별시 강남구 개포로 656, 영빌딩 지하1층 (일원동)"
90,고PT,,,37.51494912557585,127.04759507363582,,"서울특별시 강남구 삼성로115길 16-5, 2층 (삼성동)"
91,베네핏짐,https://search.pstatic.net/common/?autoRotate=true&type=w560_sharpen&src=https%3A%2F%2Fldb-phinf.pstatic.net%2F20210817_18%2F1629167182121LYJN9_PNG%2FRcPTZ8Hv7JrNhTwHuhLwdvOj.png,,37.519649594085045,127.04630230911884,,"서울특별시 강남구 삼성로133길 3, 노블레스타워 8층 (청담동)"
92,큐짐,https://search.pstatic.net/common/?autoRotate=true&type=w560_sharpen&src=https%3A%2F%2Fldb-phinf.pstatic.net%2F20210929_288%2F16329077314421f6jh_JPEG%2FB-b4973I_1SELzbnDyyM8fgR.jpg,,37.51484869553746,127.03389044179838,02-511-9682,"서울특별시 강남구 언주로130길 14, 회림빌딩 3,4층 (논현동)"
93,스케치바디PT&필라테스,https://search.pstatic.net/common/?autoRotate=true&type=w560_sharpen&src=https%3A%2F%2Fldb-phinf.pstatic.net%2F20210726_288%2F1627282574949vVmaf_JPEG%2FX2AzDe3g8UUWnubdPuOoRFl6.jpg,5,37.488369743448466,127.09958197360159,02-3412-2468,"서울특별시 강남구 광평로51길 8, 로얄프라자 302호 (수서동)"
94,업투 삼성역점,https://search.pstatic.net/common/?autoRotate=true&type=w560_sharpen&src=https%3A%2F%2Fldb-phinf.pstatic.net%2F20220701_297%2F1656647809182EQTaq_JPEG%2FKakaoTalk_20220630_123235957.jpg,4.98,37.50723691045755,127.05952288715893,,"서울특별시 강남구 테헤란로98길 16, 제주장학회관 지하2층 (대치동)"
95,무드짐,https://search.pstatic.net/common/?autoRotate=true&type=w560_sharpen&src=https%3A%2F%2Fldb-phinf.pstatic.net%2F20211018_289%2F1634549949184VataT_JPEG%2FwNOXvMOTQhfQO50z1Q555ByD.jpg,5,37.50715636673335,127.06020971134612,02-566-8050,"서울특별시 강남구 영동대로85길 7, 2층 (대치동)"
96,피지컬 케어&짐,https://search.pstatic.net/common/?autoRotate=true&type=w560_sharpen&src=https%3A%2F%2Fldb-phinf.pstatic.net%2F20220203_5%2F1643863783169bwOIB_PNG%2F%25C1%25DF%25BE%25D3%25C4%25B8%25C3%25B3.,,37.514627034861995,127.04758015368752,,"서울특별시 강남구 삼성로115길 20, B 빌딩 2층 (삼성동)"
97,루해빗,,,37.48851994554456,127.1003662001986,02-459-8821,"서울특별시 강남구 광평로51길 6-11, 문암빌딩 지하1층 (수서동)"
98,소프트 실버타입,https://search.pstatic.net/common/?autoRotate=true&type=w560_sharpen&src=https%3A%2F%2Fldb-phinf.pstatic.net%2F20220119_165%2F1642573073820BSf0d_JPEG%2FKakaoTalk_Photo_2022-01-06-11-57-58.jpeg,,37.517525062942475,127.0470884436103,,"서울특별시 강남구 삼성로 651, 3층 301호 (삼성동, 래미안 라클래시)"
99,위크로스핏 양재,https://search.pstatic.net/common/?autoRotate=true&type=w560_sharpen&src=https%3A%2F%2Fldb-phinf.pstatic.net%2F20211112_21%2F1636711012264p5wBT_PNG%2FKakaoTalk_20210902_230238739_01.png,,37.4858481438426,127.03281259380972,,"서울특별시 강남구 남부순환로355길 13, 지하1층 (도곡동)"
100,파트너짐,https://search.pstatic.net/common/?autoRotate=true&type=w560_sharpen&src=https%3A%2F%2Fldb-phinf.pstatic.net%2F20220126_3%2F1643189350434WFl5t_JPEG%2F0113_PartnerGym_001.,,37.52444945702284,127.02456406786496,02-545-1181,"서울특별시 강남구 논현로167길 9, 낙산프라자 지하1층 (신사동)"
101,노크 프로젝트,https://search.pstatic.net/common/?autoRotate=true&type=w560_sharpen&src=https%3A%2F%2Fldb-phinf.pstatic.net%2F20220722_155%2F1658470514266bE7Xo_PNG%2Finstagram.png,,37.50028467490458,127.02525741916341,,"서울특별시 강남구 테헤란로1길 28-8, 2층 (역삼동)"
102,아토즈무브,https://search.pstatic.net/common/?autoRotate=true&type=w560_sharpen&src=https%3A%2F%2Fldb-phinf.pstatic.net%2F20220303_249%2F1646300079171NftEe_JPEG%2F5514C854-A857-46B5-BD66-DD814C33C440.jpeg,,37.52425981423349,127.03727458965267,,"서울특별시 강남구 선릉로152길 7, 홍경빌딩 4층 (청담동)"
103,닥터포바디 퍼스널 트레이닝,https://search.pstatic.net/common/?autoRotate=true&type=w560_sharpen&src=https%3A%2F%2Fldb-phinf.pstatic.net%2F20220314_2%2F1647213710812RdHeN_JPEG%2F20220313_151923.jpg,,37.48266363049757,127.05917034551005,02-573-3570,"서울특별시 강남구 선릉로4길 11, 3층 (개포동)"
104,DIVE GYM PRIVATE,https://search.pstatic.net/common/?autoRotate=true&type=w560_sharpen&src=https%3A%2F%2Fldb-phinf.pstatic.net%2F20220618_199%2F1655529134500p9XsD_JPEG%2FKakaoTalk_20220311_131046604.jpg,,37.498529441968905,127.04505874319135,,"서울특별시 강남구 역삼로52길 14, 도곡프라자 3층 (역삼동)"
105,짐파티,https://search.pstatic.net/common/?autoRotate=true&type=w560_sharpen&src=https%3A%2F%2Fldb-phinf.pstatic.net%2F20220530_297%2F1653875234629Tp0M5_JPEG%2FIMG_5275.,,37.51740442658369,127.04847064326806,,"서울특별시 강남구 삼성로 642, 삼성빌딩 3층 302호 (삼성동)"
106,업투 한티역점,https://search.pstatic.net/common/?autoRotate=true&type=w560_sharpen&src=https%3A%2F%2Fldb-phinf.pstatic.net%2F20220506_105%2F1651832445774lhYvf_JPEG%2F%25B4%25D9%25BF%25EE%25B7%25CE%25B5%25E5.jpg,,37.495832492619776,127.04983893898631,,"서울특별시 강남구 선릉로 227, 지하1층 1호 (도곡동)"
107,로그짐 양재역점,,,37.48573147519345,127.03168004782383,02-575-9682,"서울특별시 강남구 남부순환로351길 14, 지하 1층 (도곡동)"
108,정석PT,https://search.pstatic.net/common/?autoRotate=true&type=w560_sharpen&src=https%3A%2F%2Fldb-phinf.pstatic.net%2F20220518_65%2F1652854714459RTIF4_JPEG%2FKakaoTalk_20220518_151549492.jpg,,37.490503842722525,127.0296283271416,,"서울특별시 강남구 강남대로62길 11, 701호 (역삼동)"
109,리얼핏짐,https://search.pstatic.net/common/?autoRotate=true&quality=95&type=w750&src=https%3A%2F%2Fldb-phinf.pstatic.net%2F20220511_4%2F1652273286288ltqiy_JPEG%2F5CE51178-C211-41F4-AD69-D9B8ED7168A4.jpeg,,37.52234164265399,127.02292573933511,,"서울특별시 강남구 도산대로25길 43, 3층 (신사동)"
